PostalCode,Borough,Neighborhood,Latitude,Longitude
92000,Hauts-de-Seine,Nanterre,48.8902479,2.2025832
92100,Hauts-de-Seine,Boulogne-Billancourt,48.8322369,2.2512524
92110,Hauts-de-Seine,Clichy,48.9030767,2.30612784841191
92120,Hauts-de-Seine,Montrouge,48.81865495,2.32117314613915
92130,Hauts-de-Seine,Issy-les-Moulineaux,48.8279828,2.2641542
92140,Hauts-de-Seine,Clamart,48.7964414201978,2.25797163170785
92150,Hauts-de-Seine,Suresnes,48.8747841661205,2.22859206129091
92160,Hauts-de-Seine,Antony,48.7504919977396,2.30168751275623
92170,Hauts-de-Seine,Vanves,48.8219562041659,2.28770654851936
92190,Hauts-de-Seine,Meudon,48.8142280056066,2.23358844794653
92200,Hauts-de-Seine,Neuilly-sur-Seine,48.8799659249043,2.2562278908441
92210,Hauts-de-Seine,Saint-Cloud,48.8439311970058,2.2151674626076
92220,Hauts-de-Seine,Bagneux,48.7999886132174,2.31081642222929
92230,Hauts-de-Seine,Gennevilliers,48.9296475135049,2.3020023356413
92240,Hauts-de-Seine,Malakoff,48.8180801631879,2.30153049895451
92250,Hauts-de-Seine,La Garenne-Colombes,48.905823887082,2.24355681183747
92260,Hauts-de-Seine,Fontenay-aux-Roses,48.7913041856722,2.28575875205766
92270,Hauts-de-Seine,Bois-Colombes,48.913520014938,2.2686073656883
92290,Hauts-de-Seine,Châtenay-Malabry,48.7704704049474,2.26407937991476
92300,Hauts-de-Seine,Levallois-Perret,48.8939106324218,2.28687338833639
92310,Hauts-de-Seine,Sèvres,48.8222270945332,2.21370604536895
92320,Hauts-de-Seine,Châtillon,48.8105820436146,2.29537639286981
92330,Hauts-de-Seine,Sceaux,48.7768874878929,2.28604449521125
92340,Hauts-de-Seine,Bourg-la-Reine,48.7808809,2.31546151887755
92350,Hauts-de-Seine,Le Plessis-Robinson,48.7742033,2.2379816
92370,Hauts-de-Seine,Chaville,48.8069976,2.1853514
92380,Hauts-de-Seine,Garches,48.8440436247057,2.19211207450831
92390,Hauts-de-Seine,Villeneuve-la-Garenne,48.9309858069496,2.32885944219344
92400,Hauts-de-Seine,Courbevoie,48.8973489546718,2.25143268828024
92410,Hauts-de-Seine,Ville-d'Avray,48.8247307647457,2.18671556805345
92420,Hauts-de-Seine,Vaucresson,48.8408291910095,2.16072028329545
92430,Hauts-de-Seine,Marnes-la-Coquette,48.8304496574929,2.17291772125452
92500,Hauts-de-Seine,Rueil-Malmaison,48.88346575,2.17228557935855
92600,Hauts-de-Seine,Asnières-sur-Seine,48.9068802,2.287751
92700,Hauts-de-Seine,Colombes,48.9209724848171,2.24828296861839
92800,Hauts-de-Seine,Puteaux,48.882574282571,2.24114295983797
93000,Seine-Saint-Denis,Bobigny,48.9083813954443,2.43527180711427
93100,Seine-Saint-Denis,Montreuil,48.8601206855988,2.44150280435169
93110,Seine-Saint-Denis,Rosny-sous-Bois,48.8725684865859,2.48877772718709
93120,Seine-Saint-Denis,La Courneuve,48.9265009113655,2.3988495063262
93130,Seine-Saint-Denis,Noisy-le-Sec,48.894815,2.4421502
93140,Seine-Saint-Denis,Bondy,48.9003443244363,2.4804569136312
93150,Seine-Saint-Denis,Le Blanc-Mesnil,48.9435689,2.4392241
93160,Seine-Saint-Denis,Noisy-le-Grand,48.8428427409168,2.55584313303557
93170,Seine-Saint-Denis,Bagnolet,48.8696484598718,2.42120093680585
93190,Seine-Saint-Denis,Livry-Gargan,48.9202308737453,2.53832865675386
93200,Seine-Saint-Denis,Saint-Denis,48.9335829,2.3711008
93220,Seine-Saint-Denis,Gagny,48.8863166,2.5393116
93230,Seine-Saint-Denis,Romainville,48.8877900075003,2.4312990311434
93240,Seine-Saint-Denis,Stains,48.9582008373208,2.37988125529198
93250,Seine-Saint-Denis,Villemomble,48.8873216789206,2.50916612737455
93260,Seine-Saint-Denis,Les Lilas,48.8801703508206,2.41883489402352
93270,Seine-Saint-Denis,Sevran,48.9276634,2.52381396346716
93290,Seine-Saint-Denis,Tremblay-en-France,48.9641961010816,2.56150405666807
93300,Seine-Saint-Denis,Aubervilliers,48.909328035729,2.38010473854727
93310,Seine-Saint-Denis,Le Pré-Saint-Gervais,48.88454393062,2.40625306335661
93320,Seine-Saint-Denis,Les Pavillons-sous-Bois,48.9047151767238,2.5074165162066
93330,Seine-Saint-Denis,Neuilly-sur-Marne,48.8598348278229,2.52937465662746
93340,Seine-Saint-Denis,Le Raincy,48.8945737855463,2.51606988699237
93350,Seine-Saint-Denis,Le Bourget,48.9336389,2.4224588
93360,Seine-Saint-Denis,Neuilly-Plaisance,48.8651479963342,2.5082122702225
93370,Seine-Saint-Denis,Montfermeil,48.8987386902938,2.56446600412107
93380,Seine-Saint-Denis,Pierrefitte-sur-Seine,48.960392193991,2.36036195263031
93390,Seine-Saint-Denis,Clichy-sous-Bois,48.9077596881318,2.53538753142449
93400,Seine-Saint-Denis,Saint-Ouen,48.912904,2.325507
93410,Seine-Saint-Denis,Vaujours,48.9331728387712,2.57048575599489
93420,Seine-Saint-Denis,Villepinte,48.9583080715287,2.54200671212099
93430,Seine-Saint-Denis,Villetaneuse,48.9566737,2.3431131
93440,Seine-Saint-Denis,Dugny,48.950293580409,2.41908875350569
93450,Seine-Saint-Denis,L' Île-Saint-Denis,,
93460,Seine-Saint-Denis,Gournay-sur-Marne,48.8597800182949,2.58052756585112
93470,Seine-Saint-Denis,Coubron,48.9156787321759,2.57519432544119
93500,Seine-Saint-Denis,Pantin,48.90562155,2.39770653321798
93600,Seine-Saint-Denis,Aulnay-sous-Bois,48.9409340847378,2.49138040846589
93700,Seine-Saint-Denis,Drancy,48.9208983825159,2.43418067969995
93800,Seine-Saint-Denis,Épinay-sur-Seine,48.9543034556027,2.3054705488116
94000,Val-de-Marne,Créteil,48.7833250413442,2.45676304295516
94100,Val-de-Marne,Saint-Maur-des-Fossés,48.80072635,2.4871155124092
94110,Val-de-Marne,Arcueil,48.8069108,2.3367770073898
94120,Val-de-Marne,Fontenay-sous-Bois,48.8505396747816,2.46990022916306
94130,Val-de-Marne,Nogent-sur-Marne,48.8377256520775,2.48241058326687
94140,Val-de-Marne,Alfortville,48.8047461689178,2.4196010524284
94150,Val-de-Marne,Rungis,48.750847850879,2.34815271296203
94160,Val-de-Marne,Saint-Mandé,48.845994,2.4206169
94170,Val-de-Marne,Le Perreux-sur-Marne,48.8467116290789,2.50819305660125
94190,Val-de-Marne,Villeneuve-Saint-Georges,48.7411095776567,2.44845850012871
94200,Val-de-Marne,Ivry-sur-Seine,48.8150341390328,2.38530315279799
94220,Val-de-Marne,Charenton-le-Pont,48.8217799188814,2.4165381884581
94230,Val-de-Marne,Cachan,48.7938293535993,2.32849405292097
94240,Val-de-Marne,L' Haÿ-les-Roses,,
94250,Val-de-Marne,Gentilly,48.8122308895575,2.34653987989414
94260,Val-de-Marne,Fresnes,48.7590411704606,2.3246865937674
94270,Val-de-Marne,Le Kremlin-Bicêtre,48.8123085573198,2.36094067591892
94290,Val-de-Marne,Villeneuve-le-Roi,48.7342437565847,2.42207254863268
94300,Val-de-Marne,Vincennes,48.8470028309697,2.43647698562265
94310,Val-de-Marne,Orly,48.7383590738819,2.38003692756916
94320,Val-de-Marne,Thiais,48.761302715958,2.39041362374538
94340,Val-de-Marne,Joinville-le-Pont,48.8219621393208,2.47087549145953
94350,Val-de-Marne,Villiers-sur-Marne,48.8235070455683,2.54030539447845
94360,Val-de-Marne,Bry-sur-Marne,48.8372003132525,2.5268214746668
94370,Val-de-Marne,Sucy-en-Brie,48.7705723085758,2.52208904129499
94380,Val-de-Marne,Bonneuil-sur-Marne,48.77008425,2.48536197611086
94400,Val-de-Marne,Vitry-sur-Seine,48.7942582918971,2.39258831576543
94410,Val-de-Marne,Saint-Maurice,48.8180165459586,2.43687724775685
94420,Val-de-Marne,Le Plessis-Trévise,48.8081774169684,2.57663130108437
94430,Val-de-Marne,Chennevières-sur-Marne,48.8031048686163,2.53334051015398
94440,Val-de-Marne,Marolles-en-Brie,48.7391,2.55424
94440,Val-de-Marne,Santeny,48.7348571,2.5788488
94440,Val-de-Marne,Villecresnes,48.7206898392991,2.53434458468917
94450,Val-de-Marne,Limeil-Brévannes,48.7472228354846,2.48008686597819
94460,Val-de-Marne,Valenton,48.7539019880624,2.46050455721895
94470,Val-de-Marne,Boissy-Saint-Léger,48.7511917882642,2.51221745461259
94480,Val-de-Marne,Ablon-sur-Seine,48.7239281300757,2.42002842721544
94490,Val-de-Marne,Ormesson-sur-Marne,48.7894195746315,2.54388728397486
94500,Val-de-Marne,Champigny-sur-Marne,48.8126571552586,2.51394661346527
94510,Val-de-Marne,La Queue-en-Brie,48.786652903187,2.57643111333195
94520,Val-de-Marne,Mandres-les-Roses,48.7004292262734,2.54677409684821
94520,Val-de-Marne,Périgny,48.6945432,2.5534243
94550,Val-de-Marne,Chevilly-Larue,48.7697275503925,2.3597107252795
94600,Val-de-Marne,Choisy-le-Roi,48.7646847656906,2.40992557756798
94700,Val-de-Marne,Maisons-Alfort,48.8101349,2.4430065
94800,Val-de-Marne,Villejuif,48.7938968049229,2.36195810368041
94880,Val-de-Marne,Noiseau,48.775686454274,2.55063276663337
