PostalCode,Borough,Neighborhood,Latitude,Longitude
77000,Seine-et-Marne,Livry-sur-Seine,,
77000,Seine-et-Marne,Melun,48.514271,2.6684484
77000,Seine-et-Marne,La Rochette,48.514271,2.6684484
77000,Seine-et-Marne,Vaux-le-Pénil,,
77090,Seine-et-Marne,Collégien,48.8350460883763,2.66848921355863
77100,Seine-et-Marne,Mareuil-lès-Meaux,48.9267289,2.8634773
77100,Seine-et-Marne,Meaux,48.951831521194,2.89049992517978
77100,Seine-et-Marne,Nanteuil-lès-Meaux,48.9342464,2.8889051
77111,Seine-et-Marne,Soignolles-en-Brie,48.6540406031461,2.70809688861681
77111,Seine-et-Marne,Solers,,
77114,Seine-et-Marne,Gouaix,48.4836926,3.2945398
77114,Seine-et-Marne,Hermé,48.4823364,3.3460308
77114,Seine-et-Marne,Noyen-sur-Seine,48.4620764412564,3.34079242770559
77114,Seine-et-Marne,Villiers-sur-Seine,48.4570001,3.3742663
77115,Seine-et-Marne,Blandy,48.5576948334938,2.77727975574725
77115,Seine-et-Marne,Sivry-Courtry,,
77118,Seine-et-Marne,Balloy,48.3970835013237,3.15550883286845
77118,Seine-et-Marne,Bazoches-lès-Bray,,
77118,Seine-et-Marne,Gravon,,
77120,Seine-et-Marne,Amillis,,
77120,Seine-et-Marne,Aulnoy,,
77120,Seine-et-Marne,Beautheil,,
77120,Seine-et-Marne,Chailly-en-Brie,,
77120,Seine-et-Marne,Coulommiers,48.8068016126431,3.08126677475375
77120,Seine-et-Marne,Giremoutiers,,
77120,Seine-et-Marne,Marolles-en-Brie,,
77120,Seine-et-Marne,Mauperthuis,,
77120,Seine-et-Marne,Mouroux,48.8189879,3.0471262
77120,Seine-et-Marne,Saints,,
77122,Seine-et-Marne,Monthyon,49.0084002950748,2.8285824923073
77123,Seine-et-Marne,Noisy-sur-École,48.3625147589767,2.50083338722459
77123,Seine-et-Marne,Tousson,,
77123,Seine-et-Marne,Le Vaudoué,,
77124,Seine-et-Marne,Crégy-lès-Meaux,48.9779,2.87437
77124,Seine-et-Marne,Chauconin-Neufmontiers,48.9568936,2.8604242
77124,Seine-et-Marne,Penchard,48.9867533,2.8617917
77124,Seine-et-Marne,Villenoy,48.9537041,2.8677555
77126,Seine-et-Marne,Châtenay-sur-Seine,48.4221785467171,3.09096953430119
77126,Seine-et-Marne,Courcelles-en-Bassée,,
77126,Seine-et-Marne,Égligny,48.4275923,3.1201798
77127,Seine-et-Marne,Lieusaint,48.6292544311151,2.55517399638391
77130,Seine-et-Marne,Barbey,48.3649119,3.0558158
77130,Seine-et-Marne,Cannes-Écluse,,
77130,Seine-et-Marne,Dormelles,48.3159943,2.8982344
77130,Seine-et-Marne,Forges,48.4200386,2.9402258
77130,Seine-et-Marne,La Grande-Paroisse,48.3798247658416,2.90159926115722
77130,Seine-et-Marne,Marolles-sur-Seine,48.3874378,3.0329487
77130,Seine-et-Marne,Misy-sur-Yonne,48.35967,3.0891
77130,Seine-et-Marne,Montereau-Fault-Yonne,48.3966219,2.9578946
77130,Seine-et-Marne,Saint-Germain-Laval,,
77130,Seine-et-Marne,La Tombe,48.38756,3.08915
77130,Seine-et-Marne,Varennes-sur-Seine,48.3766097,2.9301414
77130,Seine-et-Marne,Ville-Saint-Jacques,,
77131,Seine-et-Marne,Pézarches,,
77131,Seine-et-Marne,Touquin,48.736073315905,3.00685406489041
77133,Seine-et-Marne,Féricy,48.4563303904009,2.81934528102554
77133,Seine-et-Marne,Machault,,
77134,Seine-et-Marne,Les Ormes-sur-Voulzie,48.4625101901024,3.22379717621226
77135,Seine-et-Marne,Pontcarré,48.7995541691383,2.70473731547184
77138,Seine-et-Marne,Luzancy,48.9747257743895,3.18542270087032
77139,Seine-et-Marne,Douy-la-Ramée,,
77139,Seine-et-Marne,Étrépilly,,
77139,Seine-et-Marne,Marcilly,,
77139,Seine-et-Marne,Puisieux,49.0548448039495,2.91534203114381
77139,Seine-et-Marne,Vincy-Manoeuvre,,
77140,Seine-et-Marne,Darvault,48.270741,2.7351364
77140,Seine-et-Marne,Montcourt-Fromonville,,
77140,Seine-et-Marne,Nemours,48.2708148001825,2.70871102366502
77140,Seine-et-Marne,Nonville,48.2822946,2.7966348
77140,Seine-et-Marne,Saint-Pierre-lès-Nemours,,
77141,Seine-et-Marne,Vaudoy-en-Brie,48.6930927636047,3.08154675745613
77144,Seine-et-Marne,Chalifert,48.8896421,2.7725465
77144,Seine-et-Marne,Montévrain,48.8643442595654,2.75804714155166
77145,Seine-et-Marne,May-en-Multien,49.0664397258621,3.03468881241145
77148,Seine-et-Marne,Laval-en-Brie,,
77148,Seine-et-Marne,Salins,48.4272115208872,3.01451498551175
77150,Seine-et-Marne,Férolles-Attilly,,
77150,Seine-et-Marne,Lésigny,48.7427597209971,2.61645942309348
77151,Seine-et-Marne,Montceaux-lès-Provins,48.6954930100382,3.44033108368043
77154,Seine-et-Marne,Coutençon,48.4710717,2.9977386
77154,Seine-et-Marne,Villeneuve-les-Bordes,48.4812217421231,3.01680371541779
77157,Seine-et-Marne,Everly,48.4649408320478,3.25542007964796
77160,Seine-et-Marne,Chalautre-la-Petite,,
77160,Seine-et-Marne,La Chapelle-Saint-Sulpice,,
77160,Seine-et-Marne,Chenoise,48.6144506,3.1820627
77160,Seine-et-Marne,Cucharmoy,48.6144506,3.1820627
77160,Seine-et-Marne,Mortery,48.5991156,3.2604475
77160,Seine-et-Marne,Poigny,48.5408267,3.2658614
77160,Seine-et-Marne,Provins,48.6144506,3.1820627
77160,Seine-et-Marne,Rouilly,48.5585537,3.2929189
77160,Seine-et-Marne,Saint-Brice,48.5679822,3.3254721
77160,Seine-et-Marne,Saint-Hilliers,48.6215827,3.2567048
77160,Seine-et-Marne,Vulaines-lès-Provins,,
77163,Seine-et-Marne,Dammartin-sur-Tigeaux,48.8167695,2.9223782
77163,Seine-et-Marne,Mortcerf,48.7988871912848,2.91098464818868
77163,Seine-et-Marne,Tigeaux,48.8260028,2.9012773
77164,Seine-et-Marne,Ferrières-en-Brie,48.8249976389751,2.70554611505907
77165,Seine-et-Marne,Cuisy,,
77165,Seine-et-Marne,Forfry,,
77165,Seine-et-Marne,Gesvres-le-Chapitre,,
77165,Seine-et-Marne,Iverny,,
77165,Seine-et-Marne,Le Plessis-aux-Bois,,
77165,Seine-et-Marne,Le Plessis-l'Évêque,,
77165,Seine-et-Marne,Saint-Soupplets,49.0235754438206,2.79866875776931
77166,Seine-et-Marne,Évry-Grégy-sur-Yerre,48.670963903108,2.65996128162671
77166,Seine-et-Marne,Grisy-Suisnes,,
77167,Seine-et-Marne,Bagneaux-sur-Loing,48.2314677,2.7042711
77167,Seine-et-Marne,Châtenoy,48.2329542,2.626251
77167,Seine-et-Marne,Faÿ-lès-Nemours,48.228110823192,2.68023486820842
77167,Seine-et-Marne,Ormesson,48.2445017,2.6526868
77167,Seine-et-Marne,Poligny,48.224132,2.7448859
77169,Seine-et-Marne,Boissy-le-Châtel,48.8229861682843,3.15842391030593
77169,Seine-et-Marne,Chauffry,48.8190373,3.1857769
77169,Seine-et-Marne,Saint-Germain-sous-Doue,48.8521413,3.1424526
77169,Seine-et-Marne,Saint-Siméon,48.7974987,3.2036394
77170,Seine-et-Marne,Brie-Comte-Robert,48.7009235505348,2.60694985234671
77170,Seine-et-Marne,Coubert,48.6726066,2.6954544
77170,Seine-et-Marne,Servon,48.7156707,2.5854078
77171,Seine-et-Marne,Chalautre-la-Grande,,
77171,Seine-et-Marne,Léchelle,48.5770413,3.3893219
77171,Seine-et-Marne,Melz-sur-Seine,48.4983632,3.3870965
77171,Seine-et-Marne,Sourdun,48.5391736838105,3.3961728649774
77173,Seine-et-Marne,Chevry-Cossigny,48.7292377969527,2.66634904334375
77174,Seine-et-Marne,Villeneuve-le-Comte,48.8134350846674,2.81676152441642
77174,Seine-et-Marne,Villeneuve-Saint-Denis,,
77176,Seine-et-Marne,Nandy,48.5886515,2.5750237
77176,Seine-et-Marne,Savigny-le-Temple,48.5845453695185,2.58248906900541
77177,Seine-et-Marne,Brou-sur-Chantereine,48.8829103295857,2.62968231739022
77178,Seine-et-Marne,Oissery,49.0706669,2.8171929
77178,Seine-et-Marne,Saint-Pathus,49.0718506442863,2.80373069104792
77181,Seine-et-Marne,Courtry,48.9117889876052,2.60538505484778
77181,Seine-et-Marne,Le Pin,48.9158565,2.59280852699842
77183,Seine-et-Marne,Croissy-Beaubourg,48.8266955395165,2.65247799709371
77184,Seine-et-Marne,Émerainville,48.8154730942039,2.61336515397167
77185,Seine-et-Marne,Lognes,48.837298971786,2.63520750904394
77186,Seine-et-Marne,Noisiel,48.84422315,2.62598426862815
77190,Seine-et-Marne,Dammarie-les-Lys,48.5148634867704,2.62405510273714
77190,Seine-et-Marne,Villiers-en-Bière,,
77200,Seine-et-Marne,Torcy,48.8368795,2.65719442821208
77210,Seine-et-Marne,Avon,48.40873185,2.73538024369837
77210,Seine-et-Marne,Samoreau,48.4255477,2.7560769
77220,Seine-et-Marne,Favières,48.8070449,2.72889847024331
77220,Seine-et-Marne,Gretz-Armainvilliers,48.742895,2.74221050185874
77220,Seine-et-Marne,Liverdy-en-Brie,,
77220,Seine-et-Marne,Presles-en-Brie,,
77220,Seine-et-Marne,Tournan-en-Brie,48.7351532905677,2.75948468122795
77230,Seine-et-Marne,Dammartin-en-Goële,49.06197645,2.70156750790637
77230,Seine-et-Marne,Juilly,49.0189882675148,2.70228866455641
77230,Seine-et-Marne,Longperrier,49.052266,2.6602525
77230,Seine-et-Marne,Marchémoret,49.0504362,2.7712838
77230,Seine-et-Marne,Montgé-en-Goële,,
77230,Seine-et-Marne,Moussy-le-Neuf,,
77230,Seine-et-Marne,Moussy-le-Vieux,,
77230,Seine-et-Marne,Nantouillet,49.0022697,2.7026687
77230,Seine-et-Marne,Rouvres,49.0619406,2.7166105
77230,Seine-et-Marne,Saint-Mard,49.0370716,2.694435
77230,Seine-et-Marne,Thieux,49.0108441,2.6695982
77230,Seine-et-Marne,Villeneuve-sous-Dammartin,49.0348062,2.6395769
77230,Seine-et-Marne,Vinantes,49.0095626,2.7348287
77240,Seine-et-Marne,Cesson,48.5634099,2.6142133
77240,Seine-et-Marne,Seine-Port,,
77240,Seine-et-Marne,Vert-Saint-Denis,48.5631655735917,2.6150289303299
77250,Seine-et-Marne,Écuelles,48.3586724,2.82569266071979
77250,Seine-et-Marne,Épisy,,
77250,Seine-et-Marne,Montarlot,,
77250,Seine-et-Marne,Moret-sur-Loing,48.37150895,2.8179281879311
77250,Seine-et-Marne,Veneux-les-Sablons,,
77250,Seine-et-Marne,Villecerf,,
77250,Seine-et-Marne,Villemer,,
77260,Seine-et-Marne,Chamigny,48.9737096,3.151646
77260,Seine-et-Marne,La Ferté-sous-Jouarre,48.9478746284601,3.12287569171241
77260,Seine-et-Marne,Reuil-en-Brie,48.96046,3.14612
77260,Seine-et-Marne,Sainte-Aulde,48.9937,3.17218
77260,Seine-et-Marne,Sammeron,48.9485088,3.0744912
77260,Seine-et-Marne,Sept-Sorts,48.9375797,3.1028193
77260,Seine-et-Marne,Ussy-sur-Marne,48.9550995,3.0708208
77270,Seine-et-Marne,Villeparisis,48.9409457848749,2.61417743560434
77280,Seine-et-Marne,Othis,49.0783088299996,2.66491203949633
77290,Seine-et-Marne,Compans,48.9936994,2.6623623
77290,Seine-et-Marne,Mitry-Mory,48.9789763425766,2.6318027566849
77300,Seine-et-Marne,Fontainebleau,48.39848195,2.7222468422963
77310,Seine-et-Marne,Boissise-le-Roi,,
77310,Seine-et-Marne,Pringy,48.521567,2.5587478
77310,Seine-et-Marne,Saint-Fargeau-Ponthierry,,
77320,Seine-et-Marne,Beton-Bazoches,,
77320,Seine-et-Marne,Cerneux,48.696314,3.346644
77320,Seine-et-Marne,La Chapelle-Moutils,,
77320,Seine-et-Marne,Chartronges,48.7458363,3.2692306
77320,Seine-et-Marne,Chevru,48.7361019,3.1945106
77320,Seine-et-Marne,Choisy-en-Brie,,
77320,Seine-et-Marne,Dagny,48.7163928,3.1706926
77320,Seine-et-Marne,La Ferté-Gaucher,48.7612383890377,3.30244955317062
77320,Seine-et-Marne,Frétoy,48.7088118,3.2033517
77320,Seine-et-Marne,Jouy-sur-Morin,48.7943914,3.2718856
77320,Seine-et-Marne,Lescherolles,48.7619016,3.3453927
77320,Seine-et-Marne,Leudon-en-Brie,,
77320,Seine-et-Marne,Meilleray,48.7893752,3.4223134
77320,Seine-et-Marne,Montdauphin,48.851879,3.4279028
77320,Seine-et-Marne,Montenils,48.8419508,3.4764833
77320,Seine-et-Marne,Montolivet,48.8294223,3.4393399
77320,Seine-et-Marne,Saint-Barthélemy,,
77320,Seine-et-Marne,Saint-Mars-Vieux-Maisons,,
77320,Seine-et-Marne,Saint-Martin-des-Champs,,
77320,Seine-et-Marne,Saint-Martin-du-Boschet,48.7317396,3.4305639
77320,Seine-et-Marne,Saint-Rémy-la-Vanne,,
77320,Seine-et-Marne,Sancy-lès-Provins,,
77330,Seine-et-Marne,Ozoir-la-Ferrière,48.7654900968781,2.67870181364897
77340,Seine-et-Marne,Pontault-Combault,48.7972520498026,2.60543366017851
77350,Seine-et-Marne,Boissettes,48.520592,2.610324
77350,Seine-et-Marne,Boissise-la-Bertrand,,
77350,Seine-et-Marne,Le Mée-sur-Seine,48.53612355,2.62681619813263
77360,Seine-et-Marne,Vaires-sur-Marne,48.8737483760331,2.63982072099169
77370,Seine-et-Marne,La Chapelle-Rablais,,
77370,Seine-et-Marne,Châteaubleau,48.5874591,3.106675
77370,Seine-et-Marne,Clos-Fontaine,,
77370,Seine-et-Marne,La Croix-en-Brie,,
77370,Seine-et-Marne,Fontains,48.5283697,3.0027447
77370,Seine-et-Marne,Fontenailles,48.555306,2.953889
77370,Seine-et-Marne,Gastins,48.6282485,3.0205481
77370,Seine-et-Marne,Maison-Rouge,,
77370,Seine-et-Marne,Nangis,48.5757313107514,3.04783331075716
77370,Seine-et-Marne,Rampillon,48.5502159,3.0669657
77370,Seine-et-Marne,Saint-Just-en-Brie,,
77370,Seine-et-Marne,Vanvillé,48.5557771,3.1065782
77370,Seine-et-Marne,Vieux-Champagne,,
77380,Seine-et-Marne,Combs-la-Ville,48.6604358914958,2.55954031134145
77390,Seine-et-Marne,Andrezel,48.6112435,2.8135847
77390,Seine-et-Marne,Argentières,48.652714,2.8685582
77390,Seine-et-Marne,Beauvoir,48.6449274,2.8621065
77390,Seine-et-Marne,Champdeuil,48.620521,2.7305771
77390,Seine-et-Marne,Chaumes-en-Brie,,
77390,Seine-et-Marne,Courquetaine,48.6773871,2.7439351
77390,Seine-et-Marne,Courtomer,48.6553802,2.9041874
77390,Seine-et-Marne,Crisenoy,48.5961401,2.7431226
77390,Seine-et-Marne,Fouju,48.5863987,2.7785364
77390,Seine-et-Marne,Guignes,48.6354878,2.7954418
77390,Seine-et-Marne,Ozouer-le-Voulgis,,
77390,Seine-et-Marne,Verneuil-l'Étang,48.6416539193202,2.8066216047567
77390,Seine-et-Marne,Yèbles,48.6380245,2.771045
77400,Seine-et-Marne,Carnetin,48.9006464,2.7046898
77400,Seine-et-Marne,Dampmart,48.8852184,2.7355279
77400,Seine-et-Marne,Gouvernes,48.8598385,2.6927897
77400,Seine-et-Marne,Lagny-sur-Marne,48.876722,2.7083867868217
77400,Seine-et-Marne,Pomponne,48.8816121,2.6913606
77400,Seine-et-Marne,Saint-Thibault-des-Vignes,48.861736,2.67458276769714
77400,Seine-et-Marne,Thorigny-sur-Marne,48.8841856,2.7115737
77410,Seine-et-Marne,Annet-sur-Marne,48.9263555,2.7189327
77410,Seine-et-Marne,Charmentray,48.9457165,2.7772501
77410,Seine-et-Marne,Charny,48.9960067,2.7471736952151
77410,Seine-et-Marne,Claye-Souilly,48.9472326338648,2.70408449931926
77410,Seine-et-Marne,Fresnes-sur-Marne,48.9379907,2.7398914
77410,Seine-et-Marne,Gressy,48.9640864,2.6723722
77410,Seine-et-Marne,Messy,48.9666746,2.6999883
77410,Seine-et-Marne,Précy-sur-Marne,48.9308622,2.7746364
77410,Seine-et-Marne,Saint-Mesmes,48.9960067,2.7471736952151
77410,Seine-et-Marne,Villeroy,48.9842338,2.7798097
77410,Seine-et-Marne,Villevaudé,48.9160534,2.6546216
77420,Seine-et-Marne,Champs-sur-Marne,48.8456069,2.5849933
77430,Seine-et-Marne,Champagne-sur-Seine,48.3989701431631,2.80235867543224
77440,Seine-et-Marne,Armentières-en-Brie,,
77440,Seine-et-Marne,Cocherel,49.0212771,3.1035421
77440,Seine-et-Marne,Congis-sur-Thérouanne,49.0076565,2.97488672388059
77440,Seine-et-Marne,Dhuisy,49.03934,3.1602453
77440,Seine-et-Marne,Isles-les-Meldeuses,48.9988416,3.0032414
77440,Seine-et-Marne,Jaignes,48.9922934,3.0517896
77440,Seine-et-Marne,Lizy-sur-Ourcq,49.0207757396129,3.02820112421581
77440,Seine-et-Marne,Mary-sur-Marne,49.02061495,3.03116275263889
77440,Seine-et-Marne,Ocquerre,49.0376191,3.0570819
77440,Seine-et-Marne,Le Plessis-Placy,,
77440,Seine-et-Marne,Tancrou,49.0008305,3.0478378
77440,Seine-et-Marne,Trocy-en-Multien,,
77440,Seine-et-Marne,Vendrest,49.046335,3.0924314
77450,Seine-et-Marne,Condé-Sainte-Libiaire,48.8972333,2.8304193
77450,Seine-et-Marne,Esbly,48.9094340895236,2.80822048365504
77450,Seine-et-Marne,Isles-lès-Villenoy,48.912124,2.8290171
77450,Seine-et-Marne,Jablines,48.9175496,2.7648157
77450,Seine-et-Marne,Lesches,48.9074587,2.7782729
77450,Seine-et-Marne,Montry,48.8830073,2.8323132
77450,Seine-et-Marne,Trilbardou,48.9420503,2.8056507
77450,Seine-et-Marne,Vignely,48.9314377,2.8099769
77460,Seine-et-Marne,Chaintreaux,48.1996948,2.8187982
77460,Seine-et-Marne,Souppes-sur-Loing,48.1900508068693,2.76186617916341
77470,Seine-et-Marne,Boutigny,48.9209326,2.9296609
77470,Seine-et-Marne,Fublaines,48.9436173606783,2.95110959984491
77470,Seine-et-Marne,Montceaux-lès-Meaux,48.9411762,2.985446
77470,Seine-et-Marne,Poincy,48.9692581,2.9349893
77470,Seine-et-Marne,Saint-Fiacre,48.9219814,2.9530321
77470,Seine-et-Marne,Trilport,48.9585984,2.9471072
77470,Seine-et-Marne,Villemareuil,48.9208317,2.9729056
77480,Seine-et-Marne,Baby,48.3955294,3.3427924
77480,Seine-et-Marne,Bray-sur-Seine,48.4149956,3.2394035
77480,Seine-et-Marne,Fontaine-Fourches,,
77480,Seine-et-Marne,Grisy-sur-Seine,48.4394636,3.3193004
77480,Seine-et-Marne,Jaulnes,48.4359933136742,3.28124211313266
77480,Seine-et-Marne,Montigny-le-Guesdier,,
77480,Seine-et-Marne,Mousseaux-lès-Bray,48.4142146,3.2263368
77480,Seine-et-Marne,Mouy-sur-Seine,48.41975,3.23787
77480,Seine-et-Marne,Passy-sur-Seine,48.425186,3.349561
77480,Seine-et-Marne,Saint-Sauveur-lès-Bray,48.4376228,3.2086538
77480,Seine-et-Marne,Villenauxe-la-Petite,,
77480,Seine-et-Marne,Villuis,48.4102619,3.3552345
77500,Seine-et-Marne,Chelles,48.8824774758895,2.59362979711318
77510,Seine-et-Marne,Bellot,48.8570412,3.3182562
77510,Seine-et-Marne,Doue,48.8681545,3.1677847
77510,Seine-et-Marne,Hondevilliers,48.8991824,3.3092262
77510,Seine-et-Marne,Rebais,48.8483896,3.232178
77510,Seine-et-Marne,Sablonnières,48.8611404363995,3.28363171123991
77510,Seine-et-Marne,Saint-Denis-lès-Rebais,48.8458799,3.2055463
77510,Seine-et-Marne,Saint-Léger,,
77510,Seine-et-Marne,La Trétoire,48.8738577,3.2511841
77510,Seine-et-Marne,Verdelot,48.8749814,3.3644461
77510,Seine-et-Marne,Villeneuve-sur-Bellot,48.8621384,3.3412539
77515,Seine-et-Marne,La Celle-sur-Morin,48.8032741,2.9724489
77515,Seine-et-Marne,Faremoutiers,48.8008510337876,2.99385913300688
77515,Seine-et-Marne,Hautefeuille,48.7659739,2.9674444
77515,Seine-et-Marne,Pommeuse,48.8163232,3.0153334
77515,Seine-et-Marne,Saint-Augustin,48.7858921,3.0292059
77520,Seine-et-Marne,Cessoy-en-Montois,,
77520,Seine-et-Marne,Donnemarie-Dontilly,48.478092640002,3.1373838247855
77520,Seine-et-Marne,Gurcy-le-Châtel,,
77520,Seine-et-Marne,Luisetaines,48.4675189,3.1816833
77520,Seine-et-Marne,Meigneux,48.51174,3.106244
77520,Seine-et-Marne,Mons-en-Montois,,
77520,Seine-et-Marne,Montigny-Lencoup,,
77520,Seine-et-Marne,Paroy,48.4793547,3.1993644
77520,Seine-et-Marne,Sigy,48.4776478,3.1815116
77520,Seine-et-Marne,Sognolles-en-Montois,,
77520,Seine-et-Marne,Thénisy,48.488461,3.1772742
77520,Seine-et-Marne,Vimpelles,48.4398778,3.1660844
77540,Seine-et-Marne,Bernay-Vilbert,,
77540,Seine-et-Marne,La Chapelle-Iger,,
77540,Seine-et-Marne,Courpalay,48.6496903,2.9612809
77540,Seine-et-Marne,Lumigny-Nesles-Ormeaux,48.7254879,2.9541365
77540,Seine-et-Marne,Le Plessis-Feu-Aussoux,48.71594,3.033605
77540,Seine-et-Marne,Rozay-en-Brie,48.6745155321833,2.96716290656115
77540,Seine-et-Marne,Voinsles,48.6909608,3.003678
77550,Seine-et-Marne,Limoges-Fourches,,
77550,Seine-et-Marne,Lissy,,
77550,Seine-et-Marne,Moissy-Cramayel,48.6268125276045,2.59149526560305
77550,Seine-et-Marne,Réau,,
77560,Seine-et-Marne,Augers-en-Brie,48.6491988514021,3.35824914397481
77560,Seine-et-Marne,Beauchery-Saint-Martin,,
77560,Seine-et-Marne,Champcenest,,
77560,Seine-et-Marne,Courchamp,,
77560,Seine-et-Marne,Courtacon,,
77560,Seine-et-Marne,Louan-Villegruis-Fontaine,,
77560,Seine-et-Marne,Les Marêts,,
77560,Seine-et-Marne,Rupéreux,,
77560,Seine-et-Marne,Villiers-Saint-Georges,,
77560,Seine-et-Marne,Voulton,,
77570,Seine-et-Marne,Aufferville,48.2147269,2.6098629
77570,Seine-et-Marne,Bougligny,48.1942781,2.6577077
77570,Seine-et-Marne,Château-Landon,48.1484687,2.6981825
77570,Seine-et-Marne,Chenou,48.1738625277239,2.66246644428904
77570,Seine-et-Marne,La Madeleine-sur-Loing,48.2043305,2.7043277
77570,Seine-et-Marne,Maisoncelles-en-Gâtinais,,
77570,Seine-et-Marne,Mondreville,48.1435271,2.6112647
77580,Seine-et-Marne,Bouleurs,48.88019,2.907062
77580,Seine-et-Marne,Coulommes,48.8915633,2.9300013
77580,Seine-et-Marne,Coutevroult,48.8564951,2.8598125
77580,Seine-et-Marne,Crécy-la-Chapelle,48.8621723267268,2.95930574287799
77580,Seine-et-Marne,Guérard,48.8239829,2.9580234
77580,Seine-et-Marne,La Haute-Maison,48.8841197,2.9981086
77580,Seine-et-Marne,Maisoncelles-en-Brie,48.8616427,2.9877138
77580,Seine-et-Marne,Pierre-Levée,48.8991542,3.0399158
77580,Seine-et-Marne,Sancy,48.8843185,2.958375
77580,Seine-et-Marne,Vaucourtois,48.8959598,2.9519736
77580,Seine-et-Marne,Villiers-sur-Morin,48.8593819,2.8795901
77580,Seine-et-Marne,Voulangis,48.8510732,2.8928314
77590,Seine-et-Marne,Bois-le-Roi,48.4802718344572,2.70845247271784
77590,Seine-et-Marne,Chartrettes,48.4881157,2.7005289
77590,Seine-et-Marne,Fontaine-le-Port,48.5048991,2.7948245
77600,Seine-et-Marne,Bussy-Saint-Georges,48.8429360019726,2.71397433736387
77600,Seine-et-Marne,Bussy-Saint-Martin,,
77600,Seine-et-Marne,Chanteloup-en-Brie,,
77600,Seine-et-Marne,Conches-sur-Gondoire,,
77600,Seine-et-Marne,Guermantes,,
77600,Seine-et-Marne,Jossigny,,
77610,Seine-et-Marne,Les Chapelles-Bourbon,,
77610,Seine-et-Marne,Châtres,48.7089097,2.8095273
77610,Seine-et-Marne,Crèvecoeur-en-Brie,,
77610,Seine-et-Marne,Fontenay-Trésigny,48.7072023,2.8725287
77610,Seine-et-Marne,La Houssaye-en-Brie,,
77610,Seine-et-Marne,Marles-en-Brie,48.7301822820666,2.85836489217096
77610,Seine-et-Marne,Neufmoutiers-en-Brie,,
77620,Seine-et-Marne,Bransles,48.1500119767362,2.84684784814286
77620,Seine-et-Marne,Égreville,48.1758188,2.8738344
77630,Seine-et-Marne,Arbonne-la-Forêt,,
77630,Seine-et-Marne,Barbizon,48.4447386,2.6064391
77630,Seine-et-Marne,Saint-Martin-en-Bière,48.4298237489597,2.58160839694105
77640,Seine-et-Marne,Jouarre,48.9199578140326,3.10136929475464
77640,Seine-et-Marne,Signy-Signets,,
77650,Seine-et-Marne,Chalmaison,48.4805323,3.2501275
77650,Seine-et-Marne,Jutigny,48.4978612,3.232652
77650,Seine-et-Marne,Lizines,48.5273142,3.1773341
77650,Seine-et-Marne,Longueville,48.5165648866686,3.22965070382473
77650,Seine-et-Marne,Sainte-Colombe,48.5408267,3.2658614
77650,Seine-et-Marne,Saint-Loup-de-Naud,48.5333277,3.2262966
77650,Seine-et-Marne,Savins,48.5113958,3.2008947
77650,Seine-et-Marne,Soisy-Bouy,,
77660,Seine-et-Marne,Changis-sur-Marne,48.958801,3.014273
77660,Seine-et-Marne,Saint-Jean-les-Deux-Jumeaux,48.9538495815587,3.02119411433476
77670,Seine-et-Marne,Saint-Mammès,,
77670,Seine-et-Marne,Vernou-la-Celle-sur-Seine,48.3964295412332,2.83083264606945
77680,Seine-et-Marne,Roissy-en-Brie,48.7882348999392,2.65458182827052
77690,Seine-et-Marne,La Genevraye,48.3186342506399,2.77087032661035
77690,Seine-et-Marne,Montigny-sur-Loing,48.3405032,2.757804
77700,Seine-et-Marne,Bailly-Romainvilliers,48.8527118,2.81070779231968
77700,Seine-et-Marne,Chessy,48.8717667,2.7844541
77700,Seine-et-Marne,Coupvray,48.8647936834877,2.78911719180933
77700,Seine-et-Marne,Magny-le-Hongre,,
77700,Seine-et-Marne,Serris,48.8558694,2.78289490905144
77710,Seine-et-Marne,Chevry-en-Sereine,,
77710,Seine-et-Marne,Lorrez-le-Bocage-Préaux,,
77710,Seine-et-Marne,Nanteau-sur-Lunain,,
77710,Seine-et-Marne,Paley,,
77710,Seine-et-Marne,Remauville,,
77710,Seine-et-Marne,Saint-Ange-le-Viel,,
77710,Seine-et-Marne,Treuzy-Levelay,,
77710,Seine-et-Marne,Vaux-sur-Lunain,,
77710,Seine-et-Marne,Villebéon,,
77710,Seine-et-Marne,Villemaréchal,48.2571468578429,2.88448846479419
77720,Seine-et-Marne,Aubepierre-Ozouer-le-Repos,48.6166795,2.93381453011834
77720,Seine-et-Marne,Bombon,48.5723121,2.8578404
77720,Seine-et-Marne,Bréau,48.5620927,2.8806749
77720,Seine-et-Marne,Champeaux,48.5860581,2.8066888
77720,Seine-et-Marne,La Chapelle-Gauthier,,
77720,Seine-et-Marne,Grandpuits-Bailly-Carrois,,
77720,Seine-et-Marne,Mormant,48.5929590654918,2.90097119280774
77720,Seine-et-Marne,Quiers,48.6081703,2.971221
77720,Seine-et-Marne,Saint-Méry,48.5782223,2.8278032
77720,Seine-et-Marne,Saint-Ouen-en-Brie,,
77730,Seine-et-Marne,Citry,48.9691232,3.238121
77730,Seine-et-Marne,Méry-sur-Marne,48.96668,3.20077
77730,Seine-et-Marne,Nanteuil-sur-Marne,48.9780241,3.2208862
77730,Seine-et-Marne,Saâcy-sur-Marne,48.9682378041877,3.21505079204328
77750,Seine-et-Marne,Bassevelle,48.9271827,3.2877268
77750,Seine-et-Marne,Boitron,48.8953535,3.2583261
77750,Seine-et-Marne,Bussières,48.9260523,3.2420827
77750,Seine-et-Marne,Orly-sur-Morin,48.9093614935761,3.22633240992809
77750,Seine-et-Marne,Saint-Cyr-sur-Morin,48.9060369,3.1868048
77750,Seine-et-Marne,Saint-Ouen-sur-Morin,48.9035044,3.1964636
77760,Seine-et-Marne,Achères-la-Forêt,,
77760,Seine-et-Marne,Amponville,48.295805253588,2.54477499643842
77760,Seine-et-Marne,Boissy-aux-Cailles,,
77760,Seine-et-Marne,Boulancourt,,
77760,Seine-et-Marne,Burcy,,
77760,Seine-et-Marne,Buthiers,,
77760,Seine-et-Marne,La Chapelle-la-Reine,,
77760,Seine-et-Marne,Chevrainvilliers,,
77760,Seine-et-Marne,Fromont,,
77760,Seine-et-Marne,Guercheville,,
77760,Seine-et-Marne,Larchant,,
77760,Seine-et-Marne,Nanteau-sur-Essonne,,
77760,Seine-et-Marne,Recloses,,
77760,Seine-et-Marne,Rumont,,
77760,Seine-et-Marne,Ury,,
77760,Seine-et-Marne,Villiers-sous-Grez,,
77780,Seine-et-Marne,Bourron-Marlotte,48.3393684971354,2.70345110898104
77810,Seine-et-Marne,Thomery,48.3979746399873,2.78463513060146
77820,Seine-et-Marne,Le Châtelet-en-Brie,48.5063992511464,2.80736999578987
77820,Seine-et-Marne,Châtillon-la-Borde,,
77820,Seine-et-Marne,Les Écrennes,,
77830,Seine-et-Marne,Échouboulains,48.4637351,2.9450737
77830,Seine-et-Marne,Pamfou,48.4558520750152,2.87538021231142
77830,Seine-et-Marne,Valence-en-Brie,,
77840,Seine-et-Marne,Coulombs-en-Valois,49.0788601038603,3.11002008556617
77840,Seine-et-Marne,Crouy-sur-Ourcq,49.0906177,3.0753978
77840,Seine-et-Marne,Germigny-sous-Coulombs,49.0646526,3.1574146
77850,Seine-et-Marne,Héricy,48.4451090712752,2.76390883134813
77860,Seine-et-Marne,Couilly-Pont-aux-Dames,48.8865207575595,2.85833867060272
77860,Seine-et-Marne,Quincy-Voisins,,
77860,Seine-et-Marne,Saint-Germain-sur-Morin,48.8829414,2.8514287
77870,Seine-et-Marne,Vulaines-sur-Seine,48.4324475688126,2.76222299729739
77880,Seine-et-Marne,Grez-sur-Loing,48.3136999532982,2.68331292229964
77890,Seine-et-Marne,Arville,48.1919994810874,2.53757838529529
77890,Seine-et-Marne,Beaumont-du-Gâtinais,,
77890,Seine-et-Marne,Garentreville,,
77890,Seine-et-Marne,Gironville,,
77890,Seine-et-Marne,Ichy,,
77890,Seine-et-Marne,Obsonville,,
77910,Seine-et-Marne,Barcy,49.0177448,2.8811183
77910,Seine-et-Marne,Chambry,48.998579,2.8937506
77910,Seine-et-Marne,Germigny-l'Évêque,48.9923186,2.9457335
77910,Seine-et-Marne,Varreddes,49.0031663669366,2.92058648528321
77920,Seine-et-Marne,Samois-sur-Seine,48.450226,2.7469063
77930,Seine-et-Marne,Cély,48.4590138,2.5326635
77930,Seine-et-Marne,Chailly-en-Bière,,
77930,Seine-et-Marne,Fleury-en-Bière,,
77930,Seine-et-Marne,Perthes,48.4717519509957,2.55709643673605
77930,Seine-et-Marne,Saint-Germain-sur-École,,
77930,Seine-et-Marne,Saint-Sauveur-sur-École,,
77940,Seine-et-Marne,Blennes,48.2576831,3.023088
77940,Seine-et-Marne,La Brosse-Montceaux,,
77940,Seine-et-Marne,Diant,48.2822091,2.9925718
77940,Seine-et-Marne,Esmans,48.3481392,2.9761408
77940,Seine-et-Marne,Flagy,48.3130745,2.9214184
77940,Seine-et-Marne,Montmachoux,48.3175052904566,2.9913391989074
77940,Seine-et-Marne,Noisy-Rudignon,,
77940,Seine-et-Marne,Thoury-Férottes,,
77940,Seine-et-Marne,Voulx,48.2803601,2.968209
77950,Seine-et-Marne,Maincy,48.5493671,2.6988855
77950,Seine-et-Marne,Moisenay,48.5619807,2.7358168
77950,Seine-et-Marne,Montereau-sur-le-Jard,48.5919203,2.6679091
77950,Seine-et-Marne,Rubelles,48.5654585148093,2.68636743509803
77950,Seine-et-Marne,Saint-Germain-Laxis,,
77950,Seine-et-Marne,Voisenon,48.5716348,2.6619783
77970,Seine-et-Marne,Bannost-Villegagnon,48.6694526847603,3.17619706977523
77970,Seine-et-Marne,Bezalles,48.677117,3.2409946
77970,Seine-et-Marne,Boisdon,48.6845811,3.2250336
77970,Seine-et-Marne,Jouy-le-Châtel,,
77970,Seine-et-Marne,Pécy,48.6557638,3.0786254
77990,Seine-et-Marne,Mauregard,49.0332971,2.5809475
77990,Seine-et-Marne,Le Mesnil-Amelot,49.0226646882073,2.58533394211469
