PostalCode,Borough,Neighborhood,Latitude,Longitude
75001, Le Louvre,Saint-Germain-l'Auxerrois,48.8596955,2.3406333
75001, Le Louvre,Les Halles,48.8621566,2.34479612821061
75001, Le Louvre,Le Palais-Royal,48.8635847,2.33620422009387
75001, Le Louvre,La Place-Vendôme,48.8673216,2.3294834
75002, La Bourse,Gaillon,48.86913515,2.33290877033551
75002, La Bourse,Vivienne,48.86885895,2.3393625582679
75002, La Bourse,Le Mail,48.8680539,2.34459476094465
75002, La Bourse,Bonne-Nouvelle,48.8706233,2.3487498
75003, Le Temple,Les Arts-et-Métiers,48.8654622,2.35533
75003, Le Temple,Les Enfants-Rouges,48.8630297,2.3612527
75003, Le Temple,Les Archives,48.85957135,2.36257274359018
75003, Le Temple,Saint-Avoye,48.8604285,2.3563687
75004, L'Hôtel-de-Ville,Saint-Merri,48.85908295,2.35080427239326
75004, L'Hôtel-de-Ville,Saint-Gervais,48.8556071,2.35838042966361
75004, L'Hôtel-de-Ville,L'Arsenal,48.8540284,2.3650261
75004, L'Hôtel-de-Ville,Notre-Dame,48.85293705,2.3500501225
75005, Le Panthéon,Saint-Victor,48.84792605,2.35526904333333
75005, Le Panthéon,Le Jardin-des-Plantes,48.8432224,2.35950895709484
75005, Le Panthéon,Le Val-de-Grâce,48.84221255,2.34389037713263
75005, Le Panthéon,La Sorbonne,48.84874155,2.34366179217617
75006, Le Luxembourg,La Monnaie,48.85458085,2.34015439843934
75006, Le Luxembourg,L'Odéon,48.8513830053604,2.33594239893942
75006, Le Luxembourg,Notre-Dame-des-Champs,48.8452749,2.3286803
75006, Le Luxembourg,Saint-Germain-des-Prés,48.853638,2.3344604
75007, Le Palais-Bourbon,Saint-Thomas-d'Aquin,48.85492565,2.3253157441074
75007, Le Palais-Bourbon,Les Invalides,48.8570374,2.3118779
75007, Le Palais-Bourbon,L'École-Militaire,48.8499964,2.31134715151531
75007, Le Palais-Bourbon,Le Gros-Caillou,48.85717205,2.3007125334758
75008, L'Élysée,Les Champs-Élysées,48.8707573,2.3053312
75008, L'Élysée,Le Faubourg-du-Roule,48.87360115,2.30761301337209
75008, L'Élysée,La Madeleine,48.87100575,2.31928408254236
75008, L'Élysée,L'Europe,48.8760477,2.3156587
75009, L'Opéra,Saint-Georges,48.8768033,2.3372248
75009, L'Opéra,La Chaussée-d'Antin,48.8744341,2.3326082
75009, L'Opéra,Le Faubourg-Montmartre,48.8767743,2.3392691
75009, L'Opéra,Rochechouart,48.8800798,2.34497685707448
75010, L'Enclos-Saint-Laurent,Saint-Vincent-de-Paul,48.88006515,2.3567718233209
75010, L'Enclos-Saint-Laurent,La Porte-Saint-Denis,48.8697447,2.3530045
75010, L'Enclos-Saint-Laurent,La Porte-Saint-Martin,48.87203775,2.36162618615963
75010, L'Enclos-Saint-Laurent,L'Hôpital-Saint-Louis,48.875139,2.36599805822586
75011, Popincourt,La Folie-Méricourt,48.86737955,2.37342304122208
75011, Popincourt,Saint-Ambroise,48.8606255,2.3751844
75011, Popincourt,La Roquette,48.857313,2.38120519879735
75011, Popincourt,Sainte-Marguerite,48.85234995,2.38589233107582
75012, Reuilly,Le Bel-Air,48.8413372,2.4008936
75012, Reuilly,Picpus,48.8450751,2.40108
75012, Reuilly,Bercy,48.8352959,2.38536284617776
75012, Reuilly,Les Quinze-Vingts,48.84681815,2.37465491376136
75013, Les Gobelins,La Salpêtrière,48.8378168,2.3646777447119
75013, Les Gobelins,La Gare,48.82789775,2.37287707056015
75013, Les Gobelins,La Maison-Blanche,48.8226147,2.3587102
75013, Les Gobelins,Croulebarbe,48.833974,2.34763417199232
75014, L'Observatoire,Le Montparnasse,48.83767925,2.33242962153066
75014, L'Observatoire,Parc Montsouris,48.8243777,2.335914
75014, L'Observatoire,Le Petit-Montrouge,48.8269415,2.32623988408569
75014, L'Observatoire,La Plaisance,48.8332087,2.3193905
75015, Vaugirard,Saint-Lambert,48.8344438,2.29821564473087
75015, Vaugirard,Necker,48.842282,2.31299984312478
75015, Vaugirard,Grenelle,48.8465079,2.290703
75015, Vaugirard,Javel,48.83914995,2.27897314805772
75016, Passy,Auteuil,48.8477221,2.2667376
75016, Passy,La Muette,48.8579754,2.274062
75016, Passy,La Porte-Dauphine,48.8715453,2.27153475973707
75016, Passy,Chaillot,48.86914905,2.29201456972865
75017, Les Batignolles-Monceau,Les Ternes,48.8807219,2.2944263
75017, Les Batignolles-Monceau,La Plaine-Monceau,48.8858135,2.30012411725372
75017, Les Batignolles-Monceau,Batignolles,48.8892339,2.31216213496166
75017, Les Batignolles-Monceau,Les Épinettes,48.8932062,2.3228373
75018, La Butte-Montmartre,Les Grandes-Carrières,48.89207685,2.33351015257768
75018, La Butte-Montmartre,Clignancourt,48.89201565,2.34594512793658
75018, La Butte-Montmartre,La Goutte-d'Or,48.8868305,2.3531436
75018, La Butte-Montmartre,La Chapelle,48.8844068,2.3603057
75019, Les Buttes-Chaumont,La Villette,48.88623995,2.37488520709187
75019, Les Buttes-Chaumont,Le Pont-de-Flandre,48.8947282,2.3823046
75019, Les Buttes-Chaumont,Amérique,48.8824235,2.39402486858987
75019, Les Buttes-Chaumont,Le Combat,48.87879625,2.37966915572606
75020, Ménilmontant,Belleville,48.87123635,2.3867013571166
75020, Ménilmontant,Saint-Fargeau,48.8714551,2.4043701
75020, Ménilmontant,Le Père-Lachaise,48.8612168,2.39392926381064
75020, Ménilmontant,Charonne,48.8562189,2.404894494376
77000,Seine-et-Marne,Melun,48.514271,2.6684484
77000,Seine-et-Marne,La Rochette,48.514271,2.6684484
77090,Seine-et-Marne,Collégien,48.835046088376295,2.6684892135586296
77100,Seine-et-Marne,Mareuil-lès-Meaux,48.9267289,2.8634772999999996
77100,Seine-et-Marne,Meaux,48.951831521194,2.8904999251797796
77100,Seine-et-Marne,Nanteuil-lès-Meaux,48.9342464,2.8889051
77111,Seine-et-Marne,Soignolles-en-Brie,48.65404060314611,2.7080968886168097
77114,Seine-et-Marne,Gouaix,48.483692600000005,3.2945398
77114,Seine-et-Marne,Hermé,48.4823364,3.3460308
77114,Seine-et-Marne,Noyen-sur-Seine,48.4620764412564,3.34079242770559
77114,Seine-et-Marne,Villiers-sur-Seine,48.4570001,3.3742663
77115,Seine-et-Marne,Blandy,48.5576948334938,2.7772797557472497
77118,Seine-et-Marne,Balloy,48.3970835013237,3.1555088328684504
77120,Seine-et-Marne,Coulommiers,48.8068016126431,3.08126677475375
77120,Seine-et-Marne,Mouroux,48.818987899999996,3.0471262
77122,Seine-et-Marne,Monthyon,49.0084002950748,2.8285824923073
77123,Seine-et-Marne,Noisy-sur-École,48.36251475897671,2.50083338722459
77124,Seine-et-Marne,Crégy-lès-Meaux,48.9779,2.87437
77124,Seine-et-Marne,Chauconin-Neufmontiers,48.9568936,2.8604242
77124,Seine-et-Marne,Penchard,48.9867533,2.8617917
77124,Seine-et-Marne,Villenoy,48.9537041,2.8677555
77126,Seine-et-Marne,Châtenay-sur-Seine,48.4221785467171,3.09096953430119
77126,Seine-et-Marne,Égligny,48.42759229999999,3.1201798
77127,Seine-et-Marne,Lieusaint,48.6292544311151,2.55517399638391
77130,Seine-et-Marne,Barbey,48.3649119,3.0558158
77130,Seine-et-Marne,Dormelles,48.3159943,2.8982343999999998
77130,Seine-et-Marne,Forges,48.4200386,2.9402258
77130,Seine-et-Marne,La Grande-Paroisse,48.3798247658416,2.90159926115722
77130,Seine-et-Marne,Marolles-sur-Seine,48.387437799999994,3.0329487
77130,Seine-et-Marne,Misy-sur-Yonne,48.35967,3.0891
77130,Seine-et-Marne,Montereau-Fault-Yonne,48.3966219,2.9578946
77130,Seine-et-Marne,La Tombe,48.38756,3.08915
77130,Seine-et-Marne,Varennes-sur-Seine,48.3766097,2.9301414
77131,Seine-et-Marne,Touquin,48.736073315904996,3.0068540648904105
77133,Seine-et-Marne,Féricy,48.45633039040089,2.8193452810255404
77134,Seine-et-Marne,Les Ormes-sur-Voulzie,48.46251019010239,3.2237971762122597
77135,Seine-et-Marne,Pontcarré,48.7995541691383,2.70473731547184
77138,Seine-et-Marne,Luzancy,48.9747257743895,3.1854227008703195
77139,Seine-et-Marne,Puisieux,49.0548448039495,2.91534203114381
77140,Seine-et-Marne,Darvault,48.270740999999994,2.7351363999999996
77140,Seine-et-Marne,Nemours,48.27081480018251,2.70871102366502
77140,Seine-et-Marne,Nonville,48.2822946,2.7966347999999996
77141,Seine-et-Marne,Vaudoy-en-Brie,48.69309276360471,3.0815467574561297
77144,Seine-et-Marne,Chalifert,48.8896421,2.7725465
77144,Seine-et-Marne,Montévrain,48.8643442595654,2.75804714155166
77145,Seine-et-Marne,May-en-Multien,49.066439725862104,3.03468881241145
77148,Seine-et-Marne,Salins,48.427211520887205,3.01451498551175
77150,Seine-et-Marne,Lésigny,48.74275972099711,2.6164594230934797
77151,Seine-et-Marne,Montceaux-lès-Provins,48.695493010038206,3.44033108368043
77154,Seine-et-Marne,Coutençon,48.4710717,2.9977386000000004
77154,Seine-et-Marne,Villeneuve-les-Bordes,48.4812217421231,3.01680371541779
77157,Seine-et-Marne,Everly,48.464940832047795,3.25542007964796
77160,Seine-et-Marne,Chenoise,48.6144506,3.1820627
77160,Seine-et-Marne,Cucharmoy,48.6144506,3.1820627
77160,Seine-et-Marne,Mortery,48.599115600000005,3.2604474999999997
77160,Seine-et-Marne,Poigny,48.540826700000004,3.2658614
77160,Seine-et-Marne,Provins,48.6144506,3.1820627
77160,Seine-et-Marne,Rouilly,48.558553700000004,3.2929188999999996
77160,Seine-et-Marne,Saint-Brice,48.5679822,3.3254721
77160,Seine-et-Marne,Saint-Hilliers,48.621582700000005,3.2567048
77163,Seine-et-Marne,Dammartin-sur-Tigeaux,48.8167695,2.9223782000000003
77163,Seine-et-Marne,Mortcerf,48.7988871912848,2.9109846481886805
77163,Seine-et-Marne,Tigeaux,48.8260028,2.9012773
77164,Seine-et-Marne,Ferrières-en-Brie,48.824997638975105,2.70554611505907
77165,Seine-et-Marne,Saint-Soupplets,49.0235754438206,2.7986687577693097
77166,Seine-et-Marne,Évry-Grégy-sur-Yerre,48.670963903107996,2.65996128162671
77167,Seine-et-Marne,Bagneaux-sur-Loing,48.2314677,2.7042711
77167,Seine-et-Marne,Châtenoy,48.2329542,2.626251
77167,Seine-et-Marne,Faÿ-lès-Nemours,48.228110823192,2.68023486820842
77167,Seine-et-Marne,Ormesson,48.24450170000001,2.6526867999999997
77167,Seine-et-Marne,Poligny,48.224132,2.7448859
77169,Seine-et-Marne,Boissy-le-Châtel,48.822986168284295,3.15842391030593
77169,Seine-et-Marne,Chauffry,48.8190373,3.1857769
77169,Seine-et-Marne,Saint-Germain-sous-Doue,48.85214129999999,3.1424526000000004
77169,Seine-et-Marne,Saint-Siméon,48.797498700000006,3.2036394
77170,Seine-et-Marne,Brie-Comte-Robert,48.7009235505348,2.60694985234671
77170,Seine-et-Marne,Coubert,48.6726066,2.6954543999999996
77170,Seine-et-Marne,Servon,48.715670700000004,2.5854077999999996
77171,Seine-et-Marne,Léchelle,48.5770413,3.3893218999999997
77171,Seine-et-Marne,Melz-sur-Seine,48.49836320000001,3.3870964999999997
77171,Seine-et-Marne,Sourdun,48.5391736838105,3.3961728649774
77173,Seine-et-Marne,Chevry-Cossigny,48.7292377969527,2.66634904334375
77174,Seine-et-Marne,Villeneuve-le-Comte,48.8134350846674,2.8167615244164197
77176,Seine-et-Marne,Nandy,48.588651500000005,2.5750237
77176,Seine-et-Marne,Savigny-le-Temple,48.5845453695185,2.58248906900541
77177,Seine-et-Marne,Brou-sur-Chantereine,48.882910329585705,2.62968231739022
77178,Seine-et-Marne,Oissery,49.0706669,2.8171929
77178,Seine-et-Marne,Saint-Pathus,49.0718506442863,2.80373069104792
77181,Seine-et-Marne,Courtry,48.9117889876052,2.6053850548477797
77181,Seine-et-Marne,Le Pin,48.9158565,2.5928085269984202
77183,Seine-et-Marne,Croissy-Beaubourg,48.8266955395165,2.65247799709371
77184,Seine-et-Marne,Émerainville,48.8154730942039,2.61336515397167
77185,Seine-et-Marne,Lognes,48.837298971786005,2.63520750904394
77186,Seine-et-Marne,Noisiel,48.84422315,2.62598426862815
77190,Seine-et-Marne,Dammarie-les-Lys,48.5148634867704,2.62405510273714
77200,Seine-et-Marne,Torcy,48.836879499999995,2.65719442821208
77210,Seine-et-Marne,Avon,48.40873185,2.73538024369837
77210,Seine-et-Marne,Samoreau,48.4255477,2.7560769
77220,Seine-et-Marne,Favières,48.807044899999994,2.72889847024331
77220,Seine-et-Marne,Gretz-Armainvilliers,48.742895000000004,2.7422105018587404
77220,Seine-et-Marne,Tournan-en-Brie,48.7351532905677,2.7594846812279505
77230,Seine-et-Marne,Dammartin-en-Goële,49.06197645,2.70156750790637
77230,Seine-et-Marne,Juilly,49.0189882675148,2.70228866455641
77230,Seine-et-Marne,Longperrier,49.052265999999996,2.6602525000000004
77230,Seine-et-Marne,Marchémoret,49.0504362,2.7712838
77230,Seine-et-Marne,Nantouillet,49.00226970000001,2.7026687000000003
77230,Seine-et-Marne,Rouvres,49.0619406,2.7166105
77230,Seine-et-Marne,Saint-Mard,49.037071600000004,2.694435
77230,Seine-et-Marne,Thieux,49.0108441,2.6695982000000003
77230,Seine-et-Marne,Villeneuve-sous-Dammartin,49.034806200000006,2.6395769000000002
77230,Seine-et-Marne,Vinantes,49.0095626,2.7348287
77240,Seine-et-Marne,Cesson,48.563409899999996,2.6142133
77240,Seine-et-Marne,Vert-Saint-Denis,48.5631655735917,2.6150289303299
77250,Seine-et-Marne,Écuelles,48.358672399999996,2.82569266071979
77250,Seine-et-Marne,Moret-sur-Loing,48.37150895,2.8179281879311002
77260,Seine-et-Marne,Chamigny,48.9737096,3.151646
77260,Seine-et-Marne,La Ferté-sous-Jouarre,48.9478746284601,3.1228756917124105
77260,Seine-et-Marne,Reuil-en-Brie,48.96046,3.1461200000000002
77260,Seine-et-Marne,Sainte-Aulde,48.9937,3.17218
77260,Seine-et-Marne,Sammeron,48.9485088,3.0744912
77260,Seine-et-Marne,Sept-Sorts,48.9375797,3.1028192999999997
77260,Seine-et-Marne,Ussy-sur-Marne,48.9550995,3.0708208
77270,Seine-et-Marne,Villeparisis,48.9409457848749,2.61417743560434
77280,Seine-et-Marne,Othis,49.0783088299996,2.66491203949633
77290,Seine-et-Marne,Compans,48.993699400000004,2.6623623
77290,Seine-et-Marne,Mitry-Mory,48.9789763425766,2.6318027566849
77300,Seine-et-Marne,Fontainebleau,48.39848195,2.7222468422963
77310,Seine-et-Marne,Pringy,48.521567,2.5587478
77320,Seine-et-Marne,Cerneux,48.696314,3.3466440000000004
77320,Seine-et-Marne,Chartronges,48.74583629999999,3.2692306
77320,Seine-et-Marne,Chevru,48.736101899999994,3.1945106
77320,Seine-et-Marne,Dagny,48.716392799999994,3.1706925999999998
77320,Seine-et-Marne,La Ferté-Gaucher,48.76123838903771,3.30244955317062
77320,Seine-et-Marne,Frétoy,48.70881179999999,3.2033517000000002
77320,Seine-et-Marne,Jouy-sur-Morin,48.7943914,3.2718856
77320,Seine-et-Marne,Lescherolles,48.7619016,3.3453927000000006
77320,Seine-et-Marne,Meilleray,48.7893752,3.4223133999999997
77320,Seine-et-Marne,Montdauphin,48.851879,3.4279028
77320,Seine-et-Marne,Montenils,48.8419508,3.4764833
77320,Seine-et-Marne,Montolivet,48.8294223,3.4393399
77320,Seine-et-Marne,Saint-Martin-du-Boschet,48.7317396,3.4305638999999997
77330,Seine-et-Marne,Ozoir-la-Ferrière,48.765490096878096,2.67870181364897
77340,Seine-et-Marne,Pontault-Combault,48.7972520498026,2.6054336601785097
77350,Seine-et-Marne,Boissettes,48.520592,2.6103240000000003
77350,Seine-et-Marne,Le Mée-sur-Seine,48.53612355,2.62681619813263
77360,Seine-et-Marne,Vaires-sur-Marne,48.873748376033106,2.6398207209916897
77370,Seine-et-Marne,Châteaubleau,48.587459100000004,3.106675
77370,Seine-et-Marne,Fontains,48.528369700000006,3.0027447
77370,Seine-et-Marne,Fontenailles,48.555306,2.9538889999999998
77370,Seine-et-Marne,Gastins,48.6282485,3.0205481
77370,Seine-et-Marne,Nangis,48.5757313107514,3.0478333107571602
77370,Seine-et-Marne,Rampillon,48.5502159,3.0669657000000003
77370,Seine-et-Marne,Vanvillé,48.5557771,3.1065782000000004
77380,Seine-et-Marne,Combs-la-Ville,48.6604358914958,2.55954031134145
77390,Seine-et-Marne,Andrezel,48.6112435,2.8135847000000003
77390,Seine-et-Marne,Argentières,48.652714,2.8685582000000003
77390,Seine-et-Marne,Beauvoir,48.6449274,2.8621065
77390,Seine-et-Marne,Champdeuil,48.620521000000004,2.7305771
77390,Seine-et-Marne,Courquetaine,48.677387100000004,2.7439351000000003
77390,Seine-et-Marne,Courtomer,48.6553802,2.9041874
77390,Seine-et-Marne,Crisenoy,48.5961401,2.7431226000000004
77390,Seine-et-Marne,Fouju,48.586398700000004,2.7785363999999997
77390,Seine-et-Marne,Guignes,48.6354878,2.7954418
77390,Seine-et-Marne,Verneuil-l'Étang,48.6416539193202,2.8066216047567005
77390,Seine-et-Marne,Yèbles,48.6380245,2.771045
77400,Seine-et-Marne,Carnetin,48.9006464,2.7046897999999997
77400,Seine-et-Marne,Dampmart,48.8852184,2.7355278999999997
77400,Seine-et-Marne,Gouvernes,48.8598385,2.6927897
77400,Seine-et-Marne,Lagny-sur-Marne,48.876721999999994,2.7083867868217
77400,Seine-et-Marne,Pomponne,48.881612100000005,2.6913606
77400,Seine-et-Marne,Saint-Thibault-des-Vignes,48.861736,2.67458276769714
77400,Seine-et-Marne,Thorigny-sur-Marne,48.8841856,2.7115737
77410,Seine-et-Marne,Annet-sur-Marne,48.9263555,2.7189327000000003
77410,Seine-et-Marne,Charmentray,48.945716499999996,2.7772501
77410,Seine-et-Marne,Charny,48.9960067,2.7471736952151002
77410,Seine-et-Marne,Claye-Souilly,48.94723263386479,2.7040844993192596
77410,Seine-et-Marne,Fresnes-sur-Marne,48.9379907,2.7398914
77410,Seine-et-Marne,Gressy,48.9640864,2.6723722000000003
77410,Seine-et-Marne,Messy,48.966674600000005,2.6999883
77410,Seine-et-Marne,Précy-sur-Marne,48.9308622,2.7746364
77410,Seine-et-Marne,Saint-Mesmes,48.9960067,2.7471736952151002
77410,Seine-et-Marne,Villeroy,48.9842338,2.7798097
77410,Seine-et-Marne,Villevaudé,48.916053399999996,2.6546216
77420,Seine-et-Marne,Champs-sur-Marne,48.84560689999999,2.5849933
77430,Seine-et-Marne,Champagne-sur-Seine,48.3989701431631,2.8023586754322403
77440,Seine-et-Marne,Cocherel,49.0212771,3.1035421000000003
77440,Seine-et-Marne,Congis-sur-Thérouanne,49.0076565,2.9748867238805894
77440,Seine-et-Marne,Dhuisy,49.03934,3.1602452999999997
77440,Seine-et-Marne,Isles-les-Meldeuses,48.998841600000006,3.0032414000000003
77440,Seine-et-Marne,Jaignes,48.9922934,3.0517896
77440,Seine-et-Marne,Lizy-sur-Ourcq,49.020775739612894,3.0282011242158102
77440,Seine-et-Marne,Mary-sur-Marne,49.02061495,3.03116275263889
77440,Seine-et-Marne,Ocquerre,49.0376191,3.0570819
77440,Seine-et-Marne,Tancrou,49.0008305,3.0478377999999995
77440,Seine-et-Marne,Vendrest,49.046335,3.0924313999999997
77450,Seine-et-Marne,Condé-Sainte-Libiaire,48.897233299999996,2.8304193
77450,Seine-et-Marne,Esbly,48.9094340895236,2.8082204836550404
77450,Seine-et-Marne,Isles-lès-Villenoy,48.912124,2.8290171
77450,Seine-et-Marne,Jablines,48.9175496,2.7648157
77450,Seine-et-Marne,Lesches,48.90745870000001,2.7782729
77450,Seine-et-Marne,Montry,48.883007299999996,2.8323132
77450,Seine-et-Marne,Trilbardou,48.9420503,2.8056507
77450,Seine-et-Marne,Vignely,48.931437700000004,2.8099769
77460,Seine-et-Marne,Chaintreaux,48.199694799999996,2.8187982000000003
77460,Seine-et-Marne,Souppes-sur-Loing,48.190050806869294,2.7618661791634103
77470,Seine-et-Marne,Boutigny,48.9209326,2.9296609
77470,Seine-et-Marne,Fublaines,48.9436173606783,2.95110959984491
77470,Seine-et-Marne,Montceaux-lès-Meaux,48.94117620000001,2.985446
77470,Seine-et-Marne,Poincy,48.9692581,2.9349893
77470,Seine-et-Marne,Saint-Fiacre,48.9219814,2.9530321
77470,Seine-et-Marne,Trilport,48.9585984,2.9471072
77470,Seine-et-Marne,Villemareuil,48.9208317,2.9729056000000003
77480,Seine-et-Marne,Baby,48.3955294,3.3427924
77480,Seine-et-Marne,Bray-sur-Seine,48.4149956,3.2394035
77480,Seine-et-Marne,Grisy-sur-Seine,48.4394636,3.3193004
77480,Seine-et-Marne,Jaulnes,48.4359933136742,3.2812421131326603
77480,Seine-et-Marne,Mousseaux-lès-Bray,48.4142146,3.2263368
77480,Seine-et-Marne,Mouy-sur-Seine,48.41975,3.23787
77480,Seine-et-Marne,Passy-sur-Seine,48.425186,3.349561
77480,Seine-et-Marne,Saint-Sauveur-lès-Bray,48.43762279999999,3.2086537999999996
77480,Seine-et-Marne,Villuis,48.4102619,3.3552345
77500,Seine-et-Marne,Chelles,48.8824774758895,2.5936297971131803
77510,Seine-et-Marne,Bellot,48.8570412,3.3182562000000004
77510,Seine-et-Marne,Doue,48.868154499999996,3.1677847000000003
77510,Seine-et-Marne,Hondevilliers,48.899182399999994,3.3092262000000003
77510,Seine-et-Marne,Rebais,48.8483896,3.2321779999999998
77510,Seine-et-Marne,Sablonnières,48.861140436399495,3.2836317112399103
77510,Seine-et-Marne,Saint-Denis-lès-Rebais,48.8458799,3.2055463
77510,Seine-et-Marne,La Trétoire,48.8738577,3.2511841
77510,Seine-et-Marne,Verdelot,48.8749814,3.3644461000000003
77510,Seine-et-Marne,Villeneuve-sur-Bellot,48.8621384,3.3412539
77515,Seine-et-Marne,La Celle-sur-Morin,48.8032741,2.9724489
77515,Seine-et-Marne,Faremoutiers,48.8008510337876,2.99385913300688
77515,Seine-et-Marne,Hautefeuille,48.7659739,2.9674443999999998
77515,Seine-et-Marne,Pommeuse,48.8163232,3.0153334
77515,Seine-et-Marne,Saint-Augustin,48.785892100000005,3.0292058999999996
77520,Seine-et-Marne,Donnemarie-Dontilly,48.478092640002004,3.1373838247855
77520,Seine-et-Marne,Luisetaines,48.4675189,3.1816833
77520,Seine-et-Marne,Meigneux,48.51174,3.106244
77520,Seine-et-Marne,Paroy,48.4793547,3.1993644
77520,Seine-et-Marne,Sigy,48.47764779999999,3.1815116000000003
77520,Seine-et-Marne,Thénisy,48.488461,3.1772742000000003
77520,Seine-et-Marne,Vimpelles,48.4398778,3.1660844
77540,Seine-et-Marne,Courpalay,48.649690299999996,2.9612808999999998
77540,Seine-et-Marne,Lumigny-Nesles-Ormeaux,48.7254879,2.9541365
77540,Seine-et-Marne,Le Plessis-Feu-Aussoux,48.71594,3.033605
77540,Seine-et-Marne,Rozay-en-Brie,48.67451553218329,2.96716290656115
77540,Seine-et-Marne,Voinsles,48.69096079999999,3.003678
77550,Seine-et-Marne,Moissy-Cramayel,48.62681252760451,2.59149526560305
77560,Seine-et-Marne,Augers-en-Brie,48.649198851402105,3.35824914397481
77570,Seine-et-Marne,Aufferville,48.214726899999995,2.6098629
77570,Seine-et-Marne,Bougligny,48.1942781,2.6577077
77570,Seine-et-Marne,Château-Landon,48.1484687,2.6981825
77570,Seine-et-Marne,Chenou,48.17386252772389,2.66246644428904
77570,Seine-et-Marne,La Madeleine-sur-Loing,48.2043305,2.7043277000000003
77570,Seine-et-Marne,Mondreville,48.1435271,2.6112647
77580,Seine-et-Marne,Bouleurs,48.88019,2.907062
77580,Seine-et-Marne,Coulommes,48.891563299999994,2.9300013
77580,Seine-et-Marne,Coutevroult,48.856495100000004,2.8598125
77580,Seine-et-Marne,Crécy-la-Chapelle,48.8621723267268,2.95930574287799
77580,Seine-et-Marne,Guérard,48.8239829,2.9580234
77580,Seine-et-Marne,La Haute-Maison,48.88411970000001,2.9981086
77580,Seine-et-Marne,Maisoncelles-en-Brie,48.861642700000004,2.9877138
77580,Seine-et-Marne,Pierre-Levée,48.8991542,3.0399157999999997
77580,Seine-et-Marne,Sancy,48.8843185,2.958375
77580,Seine-et-Marne,Vaucourtois,48.8959598,2.9519736
77580,Seine-et-Marne,Villiers-sur-Morin,48.859381899999995,2.8795901
77580,Seine-et-Marne,Voulangis,48.8510732,2.8928314
77590,Seine-et-Marne,Bois-le-Roi,48.480271834457206,2.7084524727178403
77590,Seine-et-Marne,Chartrettes,48.4881157,2.7005289
77590,Seine-et-Marne,Fontaine-le-Port,48.5048991,2.7948245
77600,Seine-et-Marne,Bussy-Saint-Georges,48.842936001972596,2.71397433736387
77610,Seine-et-Marne,Châtres,48.7089097,2.8095272999999996
77610,Seine-et-Marne,Fontenay-Trésigny,48.7072023,2.8725287
77610,Seine-et-Marne,Marles-en-Brie,48.7301822820666,2.8583648921709597
77620,Seine-et-Marne,Bransles,48.1500119767362,2.84684784814286
77620,Seine-et-Marne,Égreville,48.175818799999995,2.8738344
77630,Seine-et-Marne,Barbizon,48.4447386,2.6064391
77630,Seine-et-Marne,Saint-Martin-en-Bière,48.429823748959706,2.5816083969410495
77640,Seine-et-Marne,Jouarre,48.9199578140326,3.10136929475464
77650,Seine-et-Marne,Chalmaison,48.4805323,3.2501275
77650,Seine-et-Marne,Jutigny,48.4978612,3.232652
77650,Seine-et-Marne,Lizines,48.527314200000006,3.1773341
77650,Seine-et-Marne,Longueville,48.516564886668604,3.22965070382473
77650,Seine-et-Marne,Sainte-Colombe,48.540826700000004,3.2658614
77650,Seine-et-Marne,Saint-Loup-de-Naud,48.5333277,3.2262966
77650,Seine-et-Marne,Savins,48.511395799999995,3.2008947
77660,Seine-et-Marne,Changis-sur-Marne,48.958801,3.0142729999999998
77660,Seine-et-Marne,Saint-Jean-les-Deux-Jumeaux,48.95384958155871,3.02119411433476
77670,Seine-et-Marne,Vernou-la-Celle-sur-Seine,48.3964295412332,2.8308326460694504
77680,Seine-et-Marne,Roissy-en-Brie,48.788234899939205,2.65458182827052
77690,Seine-et-Marne,La Genevraye,48.318634250639896,2.77087032661035
77690,Seine-et-Marne,Montigny-sur-Loing,48.3405032,2.757804
77700,Seine-et-Marne,Bailly-Romainvilliers,48.852711799999994,2.8107077923196804
77700,Seine-et-Marne,Chessy,48.8717667,2.7844541
77700,Seine-et-Marne,Coupvray,48.864793683487704,2.78911719180933
77700,Seine-et-Marne,Serris,48.855869399999996,2.7828949090514397
77710,Seine-et-Marne,Villemaréchal,48.257146857842905,2.88448846479419
77720,Seine-et-Marne,Aubepierre-Ozouer-le-Repos,48.6166795,2.93381453011834
77720,Seine-et-Marne,Bombon,48.572312100000005,2.8578403999999997
77720,Seine-et-Marne,Bréau,48.5620927,2.8806749
77720,Seine-et-Marne,Champeaux,48.5860581,2.8066888
77720,Seine-et-Marne,Mormant,48.5929590654918,2.90097119280774
77720,Seine-et-Marne,Quiers,48.6081703,2.971221
77720,Seine-et-Marne,Saint-Méry,48.5782223,2.8278032000000004
77730,Seine-et-Marne,Citry,48.9691232,3.238121
77730,Seine-et-Marne,Méry-sur-Marne,48.96668,3.20077
77730,Seine-et-Marne,Nanteuil-sur-Marne,48.978024100000006,3.2208862000000003
77730,Seine-et-Marne,Saâcy-sur-Marne,48.9682378041877,3.21505079204328
77750,Seine-et-Marne,Bassevelle,48.9271827,3.2877267999999997
77750,Seine-et-Marne,Boitron,48.8953535,3.2583261
77750,Seine-et-Marne,Bussières,48.9260523,3.2420827
77750,Seine-et-Marne,Orly-sur-Morin,48.9093614935761,3.22633240992809
77750,Seine-et-Marne,Saint-Cyr-sur-Morin,48.906036900000004,3.1868048
77750,Seine-et-Marne,Saint-Ouen-sur-Morin,48.9035044,3.1964636000000004
77760,Seine-et-Marne,Amponville,48.295805253588,2.5447749964384196
77780,Seine-et-Marne,Bourron-Marlotte,48.3393684971354,2.70345110898104
77810,Seine-et-Marne,Thomery,48.3979746399873,2.7846351306014596
77820,Seine-et-Marne,Le Châtelet-en-Brie,48.506399251146405,2.80736999578987
77830,Seine-et-Marne,Échouboulains,48.4637351,2.9450737
77830,Seine-et-Marne,Pamfou,48.4558520750152,2.87538021231142
77840,Seine-et-Marne,Coulombs-en-Valois,49.07886010386029,3.11002008556617
77840,Seine-et-Marne,Crouy-sur-Ourcq,49.0906177,3.0753977999999997
77840,Seine-et-Marne,Germigny-sous-Coulombs,49.0646526,3.1574146
77850,Seine-et-Marne,Héricy,48.445109071275205,2.76390883134813
77860,Seine-et-Marne,Couilly-Pont-aux-Dames,48.8865207575595,2.8583386706027203
77860,Seine-et-Marne,Saint-Germain-sur-Morin,48.8829414,2.8514287
77870,Seine-et-Marne,Vulaines-sur-Seine,48.4324475688126,2.76222299729739
77880,Seine-et-Marne,Grez-sur-Loing,48.313699953298205,2.68331292229964
77890,Seine-et-Marne,Arville,48.1919994810874,2.5375783852952902
77910,Seine-et-Marne,Barcy,49.017744799999996,2.8811183
77910,Seine-et-Marne,Chambry,48.998579,2.8937506
77910,Seine-et-Marne,Germigny-l'Évêque,48.9923186,2.9457335
77910,Seine-et-Marne,Varreddes,49.0031663669366,2.9205864852832097
77920,Seine-et-Marne,Samois-sur-Seine,48.450226,2.7469063
77930,Seine-et-Marne,Cély,48.4590138,2.5326635
77930,Seine-et-Marne,Perthes,48.4717519509957,2.55709643673605
77940,Seine-et-Marne,Blennes,48.2576831,3.023088
77940,Seine-et-Marne,Diant,48.2822091,2.9925718
77940,Seine-et-Marne,Esmans,48.348139200000006,2.9761408
77940,Seine-et-Marne,Flagy,48.3130745,2.9214184
77940,Seine-et-Marne,Montmachoux,48.3175052904566,2.9913391989074
77940,Seine-et-Marne,Voulx,48.2803601,2.968209
77950,Seine-et-Marne,Maincy,48.549367100000005,2.6988855
77950,Seine-et-Marne,Moisenay,48.5619807,2.7358168
77950,Seine-et-Marne,Montereau-sur-le-Jard,48.5919203,2.6679091
77950,Seine-et-Marne,Rubelles,48.56545851480929,2.6863674350980298
77950,Seine-et-Marne,Voisenon,48.5716348,2.6619783
77970,Seine-et-Marne,Bannost-Villegagnon,48.669452684760294,3.1761970697752298
77970,Seine-et-Marne,Bezalles,48.677116999999996,3.2409946
77970,Seine-et-Marne,Boisdon,48.684581099999996,3.2250335999999997
77970,Seine-et-Marne,Pécy,48.655763799999995,3.0786254
77990,Seine-et-Marne,Mauregard,49.0332971,2.5809474999999997
77990,Seine-et-Marne,Le Mesnil-Amelot,49.02266468820729,2.58533394211469
78000,Yvelines,Versailles,48.8041484,2.1414322999999995
78100,Yvelines,Saint-Germain-en-Laye,48.8944471,2.071765
78110,Yvelines,Le Vésinet,48.8944240918746,2.12715002522994
78111,Yvelines,Dammartin-en-Serve,48.9061325567388,1.61913283436476
78112,Yvelines,Fourqueux,48.8903151316846,2.05976317097922
78113,Yvelines,Adainville,48.72568932241771,1.63518956673944
78113,Yvelines,Bourdonné,48.756819,1.6644207999999998
78113,Yvelines,Condé-sur-Vesgre,48.74178870000001,1.6621733
78113,Yvelines,Grandchamp,48.71031970000001,1.5992171
78113,Yvelines,La Hauteville,48.704229,1.6197296
78113,Yvelines,Le Tartre-Gaudran,48.6990073,1.5936653
78114,Yvelines,Magny-les-Hameaux,48.724337994059404,2.0860839136485403
78117,Yvelines,Châteaufort,48.7375173734467,2.09688676826974
78117,Yvelines,Toussus-le-Noble,48.75046629999999,2.1121699
78120,Yvelines,Clairefontaine-en-Yvelines,48.6054763,1.923213
78120,Yvelines,Rambouillet,48.6390354906299,1.8412384277300502
78120,Yvelines,Sonchamp,48.6304512,1.8860816000000002
78121,Yvelines,Crespières,48.88205372368,1.9213853684129398
78124,Yvelines,Montainville,48.8839874903131,1.86208315644123
78125,Yvelines,Émancé,48.5891875,1.7301408
78125,Yvelines,Gazeran,48.6348196,1.771981
78125,Yvelines,Hermeray,48.63855770000001,1.6775276000000001
78125,Yvelines,Mittainville,48.669512899999994,1.6465783
78125,Yvelines,Orcemont,48.587861700000005,1.8104848000000002
78125,Yvelines,Orphin,48.5794402,1.7800076
78125,Yvelines,Poigny-la-Forêt,48.67610951061211,1.75605335246629
78125,Yvelines,Raizeux,48.6239504,1.6833444
78125,Yvelines,Vieille-Église-en-Yvelines,48.6699302,1.8751421000000001
78126,Yvelines,Aulnay-sur-Mauldre,48.928728846632396,1.8422529187635
78130,Yvelines,Chapet,48.9661049,1.9342435000000002
78130,Yvelines,Les Mureaux,48.983945846859896,1.9170150184047299
78140,Yvelines,Vélizy-Villacoublay,48.7816630137911,2.19867769110475
78150,Yvelines,Le Chesnay,48.825954132329706,2.12267697531659
78150,Yvelines,Rocquencourt,48.825954132329706,2.12267697531659
78160,Yvelines,Marly-le-Roi,48.8836942,2.1002769
78170,Yvelines,La Celle-Saint-Cloud,48.8408042,2.1243032000000004
78180,Yvelines,Montigny-le-Bretonneux,48.7842125,2.0408490887096797
78190,Yvelines,Trappes,48.7777553067856,1.9829759487348
78200,Yvelines,Boinvilliers,48.9173328,1.661586
78200,Yvelines,Boissy-Mauvoisin,48.9633209,1.5775544
78200,Yvelines,Buchelay,48.978721500000006,1.667889
78200,Yvelines,Favrieux,48.943851200000005,1.6432873
78200,Yvelines,Flacourt,48.928071200000005,1.6467667000000001
78200,Yvelines,Fontenay-Mauvoisin,48.9642384,1.6540328999999998
78200,Yvelines,Jouy-Mauvoisin,48.976183299999995,1.648883
78200,Yvelines,Magnanville,48.9689611,1.6864976000000003
78200,Yvelines,Mantes-la-Jolie,48.9665522,1.6009912
78200,Yvelines,Ménerville,48.9665522,1.6009912
78200,Yvelines,Perdreauville,48.963562200000005,1.6293136000000001
78200,Yvelines,Soindres,48.957499,1.6739129000000001
78210,Yvelines,Saint-Cyr-l'École,48.8017794631005,2.0581862695373
78220,Yvelines,Viroflay,48.80298650110729,2.1730903701048403
78230,Yvelines,Le Pecq,48.89080269251921,2.10381382498384
78240,Yvelines,Aigremont,48.9038131,2.0195357
78240,Yvelines,Chambourcy,48.906982427347,2.0333405899556003
78250,Yvelines,Hardricourt,49.0100703952754,1.9010073440213702
78250,Yvelines,Meulan-en-Yvelines,49.010873,1.911169
78260,Yvelines,Achères,48.958874562534895,2.06688841310969
78270,Yvelines,Bennecourt,49.041242,1.560926
78270,Yvelines,Blaru,49.0490725,1.4784398
78270,Yvelines,Bonnières-sur-Seine,49.0194,1.5706
78270,Yvelines,Chaufour-lès-Bonnières,49.0163554,1.4836755
78270,Yvelines,Cravent,48.990794,1.4878139
78270,Yvelines,Gommecourt,49.0766367,1.5923118
78270,Yvelines,Jeufosse,49.0333822251128,1.5494493421466202
78270,Yvelines,Limetz-Villez,49.061397799999995,1.5485088
78270,Yvelines,Lommoye,49.00201075,1.52315194574326
78270,Yvelines,Méricourt,49.035806,1.6281136999999999
78270,Yvelines,Mousseaux-sur-Seine,49.0472102,1.6518608
78270,Yvelines,Port-Villez,49.062667600000005,1.5234108
78270,Yvelines,Rolleboise,49.019145,1.6098188
78270,Yvelines,La Villeneuve-en-Chevrie,49.015558399999996,1.5278831
78280,Yvelines,Guyancourt,48.77232502692039,2.06810356862286
78290,Yvelines,Croissy-sur-Seine,48.879053559001996,2.14385913473572
78300,Yvelines,Poissy,48.9243267457786,2.03868731261452
78310,Yvelines,Coignières,48.7471662,1.9244206000000001
78310,Yvelines,Maurepas,48.7594644565216,1.9173906013104098
78320,Yvelines,Lévis-Saint-Nom,48.7242126,1.9581737310928402
78320,Yvelines,Le Mesnil-Saint-Denis,48.743838566931,1.95379091022655
78320,Yvelines,La Verrière,48.755525799999994,1.9554697
78330,Yvelines,Fontenay-le-Fleury,48.81026426793079,2.04617388141711
78340,Yvelines,Les Clayes-sous-Bois,48.823397490807,1.98348581085606
78350,Yvelines,Jouy-en-Josas,48.76261410688661,2.1693374966271897
78350,Yvelines,Les Loges-en-Josas,48.7645251,2.1396015
78360,Yvelines,Montesson,48.915923785701,2.14264027244336
78370,Yvelines,Plaisir,48.827857356460704,1.9502699395671201
78380,Yvelines,Bougival,48.86043660128679,2.135837209102
78390,Yvelines,Bois-d'Arcy,48.8005231867049,2.0187452107461796
78400,Yvelines,Chatou,48.888269693213395,2.15253416110652
78410,Yvelines,Aubergenville,48.969173088653605,1.84722587276745
78410,Yvelines,Bouafle,48.9694227,1.9017417
78410,Yvelines,La Falaise,48.944573600000005,1.8324087
78410,Yvelines,Flins-sur-Seine,48.9623407,1.8684146000000001
78410,Yvelines,Nézel,48.945066499999996,1.8360467
78420,Yvelines,Carrières-sur-Seine,48.9139012135988,2.18552079289789
78430,Yvelines,Louveciennes,48.863752392238396,2.11590487199386
78440,Yvelines,Brueil-en-Vexin,49.020735395854,1.7999719514325903
78440,Yvelines,Gargenville,48.9927656,1.8148943
78450,Yvelines,Chavenay,48.84053995,1.9829470560378
78450,Yvelines,Villepreux,48.834241,1.996193
78460,Yvelines,Chevreuse,48.7046092040964,2.03619184826518
78460,Yvelines,Choisel,48.6872628,2.0185119
78470,Yvelines,Milon-la-Chapelle,48.7259176,2.0504148
78470,Yvelines,Saint-Rémy-lès-Chevreuse,48.7080231921739,2.0687062340160502
78480,Yvelines,Verneuil-sur-Seine,48.983195313656594,1.9689003566192498
78490,Yvelines,Bazoches-sur-Guyonne,48.777897700000004,1.8601198
78490,Yvelines,Boissy-sans-Avoir,48.81917,1.7952317999999998
78490,Yvelines,Galluis,48.7961069,1.7942019
78490,Yvelines,Gambaiseuil,48.7561179,1.73186
78490,Yvelines,Grosrouvre,48.782915100000004,1.7611819
78490,Yvelines,Mareil-le-Guyon,48.789774,1.8527383999999998
78490,Yvelines,Méré,48.7847074503014,1.8138965453534401
78490,Yvelines,Les Mesnuls,48.757163899999995,1.8368168000000002
78490,Yvelines,Montfort-l'Amaury,48.7722396,1.7892266
78490,Yvelines,Le Tremblay-sur-Mauldre,48.7780585,1.8769547
78490,Yvelines,Vicq,48.810440899999996,1.8255914
78500,Yvelines,Sartrouville,48.9395153266548,2.16832843120168
78510,Yvelines,Triel-sur-Seine,48.9794268512295,2.00951052670705
78520,Yvelines,Follainville-Dennemont,49.0202997,1.7144752
78520,Yvelines,Guernes,49.0109941,1.6345538999999998
78520,Yvelines,Limay,48.988136700000005,1.75546227287351
78530,Yvelines,Buc,48.7714091299339,2.11668981020016
78540,Yvelines,Vernouillet,48.96797622195189,1.97907834229579
78550,Yvelines,Bazainville,48.804351200000006,1.6686779999999999
78550,Yvelines,Dannemarie,48.7615134,1.6084767
78550,Yvelines,Gressey,48.8313842,1.6092498
78550,Yvelines,Houdan,48.79602620000001,1.6027417
78550,Yvelines,Maulette,48.79100582853621,1.62104163079333
78550,Yvelines,Richebourg,48.822196000000005,1.6364938999999998
78560,Yvelines,Le Port-Marly,48.8804235045684,2.10992772788447
78570,Yvelines,Andrésy,48.991243700000005,2.0610831000000003
78570,Yvelines,Chanteloup-les-Vignes,48.975874255328996,2.04180542183833
78580,Yvelines,Les Alluets-le-Roi,48.9139616,1.9177847
78580,Yvelines,Bazemont,48.928346600000005,1.8649214
78580,Yvelines,Herbeville,48.905418700000006,1.8876409
78580,Yvelines,Jumeauville,48.909512,1.7870931
78580,Yvelines,Maule,48.9127841325668,1.8505562994032498
78590,Yvelines,Noisy-le-Roi,48.843957200000006,2.0645422
78590,Yvelines,Rennemoulin,48.8343966,2.0432878
78600,Yvelines,Maisons-Laffitte,48.9442858110816,2.14106032507887
78600,Yvelines,Le Mesnil-le-Roi,48.926505600000006,2.12277
78610,Yvelines,Auffargis,48.6998475,1.8861417
78610,Yvelines,Les Bréviaires,48.7105547,1.8121066000000003
78610,Yvelines,Le Perray-en-Yvelines,48.696388141731795,1.85312382671964
78630,Yvelines,Morainvilliers,48.9274749,1.9416886000000002
78630,Yvelines,Orgeval,48.930150315610106,1.96809430440122
78640,Yvelines,Neauphle-le-Château,48.8111045,1.9038201000000001
78640,Yvelines,Neauphle-le-Vieux,48.8150158,1.8625526999999997
78640,Yvelines,Saint-Germain-de-la-Grange,48.8352376,1.9023521
78640,Yvelines,Villiers-Saint-Fréderic,48.81841123029489,1.8917815635978201
78650,Yvelines,Beynes,48.8554971,1.8748322
78660,Yvelines,Ablis,48.519495299999996,1.8406996
78660,Yvelines,Allainville,48.4568654,1.8959608000000001
78660,Yvelines,Boinville-le-Gaillard,48.496816975128404,1.85855585646862
78660,Yvelines,Orsonville,48.478749799999996,1.8353998
78660,Yvelines,Paray-Douaville,48.463311,1.8774123999999999
78660,Yvelines,Prunay-en-Yvelines,48.5282617,1.7947677
78670,Yvelines,Médan,48.95275,1.9950299999999999
78670,Yvelines,Villennes-sur-Seine,48.9339542974606,2.0021666307641
78680,Yvelines,Épône,48.9706094733313,1.83486327398728
78690,Yvelines,Les Essarts-le-Roi,48.728653079420496,1.8882322885980702
78690,Yvelines,Saint-Rémy-l'Honoré,48.7574185,1.8793459
78700,Yvelines,Conflans-Sainte-Honorine,49.0015428494753,2.09319499466582
78710,Yvelines,Rosny-sur-Seine,48.9979628077424,1.6339705541368001
78711,Yvelines,Mantes-la-Ville,48.9778300208335,1.7162857660668898
78720,Yvelines,La Celle-les-Bordes,48.6374844,1.9542039
78720,Yvelines,Cernay-la-Ville,48.6730929120626,1.97178946283988
78720,Yvelines,Dampierre-en-Yvelines,48.7050057,1.9856175999999999
78720,Yvelines,Senlisse,48.6872166,1.9815843
78730,Yvelines,Longvilliers,48.578406099999995,1.9914058000000001
78730,Yvelines,Ponthévrard,48.5515697,1.9105031000000003
78730,Yvelines,Rochefort-en-Yvelines,48.577726105642995,1.96083341536767
78730,Yvelines,Saint-Arnoult-en-Yvelines,48.572604,1.9350788
78730,Yvelines,Sainte-Mesme,48.531728,1.9606418999999997
78740,Yvelines,Évecquemont,49.0145808,1.9466256999999998
78740,Yvelines,Vaux-sur-Seine,49.010628035337895,1.9582270218476299
78750,Yvelines,Mareil-Marly,48.883404661647205,2.07740011453136
78760,Yvelines,Jouars-Pontchartrain,48.78827337000379,1.92007787354265
78770,Yvelines,Andelu,48.880309000000004,1.8258172
78770,Yvelines,Auteuil,48.84148035,1.82195019908117
78770,Yvelines,Autouillet,48.847801000000004,1.8029968999999997
78770,Yvelines,Goupillières,48.8785774,1.7611709
78770,Yvelines,Marcq,48.859645799999996,1.8204957
78770,Yvelines,Thoiry,48.86132452532289,1.79550183512402
78770,Yvelines,Villiers-le-Mahieu,48.8601096,1.7729666000000002
78780,Yvelines,Maurecourt,48.9971734293985,2.06287401850852
78790,Yvelines,Septeuil,48.89249363468021,1.66935962174918
78800,Yvelines,Houilles,48.9237708846264,2.18414700388825
78810,Yvelines,Davron,48.8651611,1.9466424999999998
78810,Yvelines,Feucherolles,48.871817213379,1.96524175996824
78820,Yvelines,Juziers,48.9932568246004,1.8586005855251797
78830,Yvelines,Bonnelles,48.620336930688,2.02346446691342
78830,Yvelines,Bullion,48.622166299999996,1.9945126
78840,Yvelines,Freneuse,49.0434389030403,1.6101047405464302
78840,Yvelines,Moisson,49.0737614,1.6685753
78850,Yvelines,Thiverval-Grignon,48.845494128892604,1.93438493338331
78860,Yvelines,Saint-Nom-la-Bretèche,48.86120317230989,2.02037225494457
78870,Yvelines,Bailly,48.8385157465742,2.07853831965422
78890,Yvelines,Garancières,48.8211402019496,1.7589350984948502
78910,Yvelines,Béhoust,48.830707700000005,1.7214396
78910,Yvelines,Boissets,48.8618662,1.5853896
78910,Yvelines,Civry-la-Forêt,48.866823700000005,1.6169513
78910,Yvelines,Flexanville,48.8559435,1.7392213
78910,Yvelines,Orgerus,48.832177670133106,1.70800819235419
78910,Yvelines,Orvilliers,48.8589299,1.6415229
78910,Yvelines,Osmoy,48.8631085,1.7172256000000001
78910,Yvelines,Prunay-le-Temple,48.861614700000004,1.6721313000000002
78910,Yvelines,Tacoignières,48.83509420000001,1.6737953
78920,Yvelines,Ecquevilly,48.9556301532912,1.92062255803473
78930,Yvelines,Auffreville-Brasseuil,48.9548027,1.7102362000000002
78930,Yvelines,Boinville-en-Mantois,48.9298152,1.7568301
78930,Yvelines,Breuil-Bois-Robert,48.9390894683433,1.7203695359862
78930,Yvelines,Goussonville,48.9350955,1.7715668999999998
78930,Yvelines,Guerville,48.9435844,1.7330307
78930,Yvelines,Vert,48.9412488,1.6909796000000001
78930,Yvelines,Villette,48.927116399999996,1.6924631999999997
78940,Yvelines,Millemont,48.809676399999994,1.7463039
78940,Yvelines,La Queue-les-Yvelines,48.805912831635,1.76137792608107
78950,Yvelines,Gambais,48.7770781983948,1.6747252401405301
78955,Yvelines,Carrières-sous-Poissy,48.9474394947887,2.0358439445708503
78960,Yvelines,Voisins-le-Bretonneux,48.75857086466989,2.05098884645106
78970,Yvelines,Mézières-sur-Seine,48.95809504909229,1.7916349173501
78980,Yvelines,Bréval,48.9431809,1.5355231000000003
78980,Yvelines,Longnes,48.9207169,1.5870848999999998
78980,Yvelines,Mondreville,48.9025052,1.5531173
78980,Yvelines,Neauphlette,48.9419209866831,1.5406348063013402
78980,Yvelines,Saint-Illiers-la-Ville,48.9763914,1.5400527
78980,Yvelines,Saint-Illiers-le-Bois,48.9592154,1.5068526000000002
78990,Yvelines,Élancourt,48.795329200000005,1.9729900000000002
91000,Essonne,Évry,48.6241902,2.4458803
91070,Essonne,Bondoufle,48.6111288855279,2.38713766249821
91080,Essonne,Courcouronnes,48.623462792894,2.4145251172704705
91090,Essonne,Lisses,48.60004824750111,2.43113703287565
91100,Essonne,Corbeil-Essonnes,48.610746,2.4762539
91120,Essonne,Palaiseau,48.717532299999995,2.2459963
91130,Essonne,Ris-Orangis,48.6493986318201,2.42650141903153
91140,Essonne,Villebon-sur-Yvette,48.692460909237795,2.21954815036105
91150,Essonne,Abbéville-la-Rivière,48.3462533,2.1664796
91150,Essonne,Blandy,48.3134979,2.2570332000000004
91150,Essonne,Bois-Herpin,48.370117900000004,2.233358
91150,Essonne,Boutervilliers,48.45308789999999,2.0560332
91150,Essonne,Brières-les-Scellés,48.4577346,2.1388602000000003
91150,Essonne,Brouy,48.316576500000004,2.2796982000000003
91150,Essonne,Champmotteux,48.3437045,2.3233273999999997
91150,Essonne,Étampes,48.4087408688756,2.18682966250184
91150,Essonne,Marolles-en-Beauce,48.374781,2.2007015
91150,Essonne,Mespuits,48.3566248,2.2725009
91150,Essonne,Morigny-Champigny,48.4533835,2.17021376259214
91150,Essonne,Ormoy-la-Rivière,48.4040049,2.1498657000000003
91150,Essonne,Puiselet-le-Marais,48.4035527,2.2628086
91150,Essonne,Roinvilliers,48.3555422,2.2431808999999996
91160,Essonne,Ballainvilliers,48.671341600000005,2.27915224217738
91160,Essonne,Champlan,48.7073405,2.2758626
91160,Essonne,Longjumeau,48.702504100000006,2.3017013
91160,Essonne,Saulx-les-Chartreux,48.690510100000004,2.27629426803898
91170,Essonne,Viry-Châtillon,48.6699404901395,2.3725613003856902
91180,Essonne,Saint-Germain-lès-Arpajon,48.5981442113272,2.25868514413023
91190,Essonne,Gif-sur-Yvette,48.7010022972079,2.1294102228913303
91190,Essonne,Saint-Aubin,48.7150991,2.1405022000000002
91190,Essonne,Villiers-le-Bâcle,48.72593079999999,2.1257761000000004
91200,Essonne,Athis-Mons,48.7044087394027,2.3707658157430602
91210,Essonne,Draveil,48.684426051693,2.4017055896634303
91220,Essonne,Brétigny-sur-Orge,48.60523475,2.31229677718912
91230,Essonne,Montgeron,48.70299927502621,2.4592541372254
91240,Essonne,Saint-Michel-sur-Orge,48.6376672175492,2.3134213570037203
91250,Essonne,Morsang-sur-Seine,48.570880200000005,2.4924457
91250,Essonne,Saint-Germain-lès-Corbeil,48.622955,2.49573154722016
91250,Essonne,Saintry-sur-Seine,48.592605600000006,2.4963162999999997
91250,Essonne,Tigery,48.639617799999996,2.5064592999999995
91260,Essonne,Juvisy-sur-Orge,48.68954695414121,2.3758948422731296
91270,Essonne,Vigneux-sur-Seine,48.7003021,2.4221904
91280,Essonne,Saint-Pierre-du-Perray,48.6110913240021,2.5061328120915403
91290,Essonne,Arpajon,48.5873403885464,2.24719146040017
91290,Essonne,La Norville,48.5858092,2.2617057000000003
91300,Essonne,Massy,48.7292718991262,2.2693173234351702
91310,Essonne,Leuville-sur-Orge,48.6155573,2.2674029
91310,Essonne,Linas,48.633971926683905,2.2704148629992598
91310,Essonne,Longpont-sur-Orge,48.647802899999995,2.2822002999999995
91310,Essonne,Montlhéry,48.638884499999996,2.2702877
91320,Essonne,Wissous,48.733970277541,2.3292397008762897
91330,Essonne,Yerres,48.7022434553489,2.4863719989731004
91340,Essonne,Ollainville,48.59555726571071,2.21770208858127
91350,Essonne,Grigny,48.6532845908581,2.38505339770184
91360,Essonne,Épinay-sur-Orge,48.6688937573206,2.3283275756936
91360,Essonne,Villemoisson-sur-Orge,48.6615283,2.3298322
91370,Essonne,Verrières-le-Buisson,48.7453609235913,2.2625616262377
91380,Essonne,Chilly-Mazarin,48.703921900101996,2.30942394330227
91390,Essonne,Morsang-sur-Orge,48.6575725159231,2.35022205566091
91400,Essonne,Orsay,48.70155203950271,2.18030734148765
91410,Essonne,Corbreuse,48.527196,1.961695
91410,Essonne,Dourdan,48.5181173697804,2.01034126377493
91410,Essonne,Plessis-Saint-Benoist,48.4481635,2.00529765967742
91420,Essonne,Morangis,48.7041109769296,2.34039980615532
91430,Essonne,Igny,48.7258757,2.21735843375292
91430,Essonne,Vauhallan,48.734404,2.2057643
91440,Essonne,Bures-sur-Yvette,48.6977000534276,2.16714605064289
91450,Essonne,Étiolles,48.639323,2.4683646
91450,Essonne,Soisy-sur-Seine,48.645343814327795,2.45990340651642
91460,Essonne,Marcoussis,48.644365323442,2.2208850522099
91470,Essonne,Angervilliers,48.59263,2.06433
91470,Essonne,Boullay-les-Troux,48.679021399999996,2.0486843
91470,Essonne,Forges-les-Bains,48.629040100000005,2.0996273
91470,Essonne,Limours,48.6446692314651,2.07504381380234
91470,Essonne,Les Molières,48.662729299999995,2.077528
91470,Essonne,Pecqueuse,48.646918299999996,2.052701
91480,Essonne,Quincy-sous-Sénart,48.674989350983,2.54010810175313
91480,Essonne,Varennes-Jarcy,48.6823402,2.5579616
91490,Essonne,Courances,48.440143799999994,2.47554
91490,Essonne,Dannemois,48.4538873,2.4778402
91490,Essonne,Milly-la-Forêt,48.414000014321395,2.47068900642074
91490,Essonne,Moigny-sur-École,48.4326946,2.4567200000000002
91490,Essonne,Oncy-sur-École,48.382425700000006,2.473635
91510,Essonne,Janville-sur-Juine,48.514580200000005,2.2620862999999996
91510,Essonne,Lardy,48.5204818,2.2654419
91520,Essonne,Égly,48.5809747946155,2.22939980529908
91530,Essonne,Saint-Chéron,48.5433065437224,2.11337082357181
91530,Essonne,Saint-Maurice-Montcouronne,48.580885200000004,2.1241465
91530,Essonne,Sermaise,48.535962899999994,2.0806522000000003
91530,Essonne,Le Val-Saint-Germain,48.5654855,2.0603061
91540,Essonne,Écharcon,48.5723372,2.4113865000000003
91540,Essonne,Fontenay-le-Vicomte,48.5478012,2.399759
91540,Essonne,Mennecy,48.5595680007102,2.4341182781230497
91540,Essonne,Ormoy,48.5751914,2.4493544
91550,Essonne,Paray-Vieille-Poste,48.7110243179357,2.36167380941493
91560,Essonne,Crosne,48.7164212121881,2.46081885658869
91570,Essonne,Bièvres,48.756145523613796,2.20850022798582
91580,Essonne,Auvers-Saint-Georges,48.4914374,2.2197404
91580,Essonne,Chauffour-lès-Étréchy,48.5031251,2.1686468
91580,Essonne,Étréchy,48.4877098,2.1968982000000006
91580,Essonne,Souzy-la-Briche,48.5287031,2.1474474999999997
91580,Essonne,Villeconin,48.5139748,2.1239463
91580,Essonne,Villeneuve-sur-Auvers,48.4742717,2.249108
91590,Essonne,Baulne,48.4931951,2.3598564
91590,Essonne,Boissy-le-Cutté,48.4706356,2.28429
91590,Essonne,Cerny,48.4794476784622,2.33069307645334
91590,Essonne,D'Huison-Longueville,48.459853100000004,2.3220237999999997
91590,Essonne,La Ferté-Alais,48.482408899999996,2.3476234000000002
91590,Essonne,Guigneville-sur-Essonne,48.4729516,2.3547515
91590,Essonne,Mondeville,48.4907658,2.4146026000000003
91590,Essonne,Orveau,48.448035299999994,2.2948861000000003
91600,Essonne,Savigny-sur-Orge,48.6794859820481,2.35039471699486
91610,Essonne,Ballancourt-sur-Essonne,48.527034980305395,2.38195530458919
91620,Essonne,Nozay,48.6446964,2.22832309720168
91620,Essonne,La Ville-du-Bois,48.661454369633596,2.2579943188578397
91630,Essonne,Avrainville,48.5623782,2.247154
91630,Essonne,Cheptainville,48.550703999999996,2.2646803
91630,Essonne,Guibeville,48.571122100000004,2.26404
91630,Essonne,Leudeville,48.566403,2.3258704
91630,Essonne,Marolles-en-Hurepoix,48.5635173411055,2.28414464308175
91640,Essonne,Briis-sous-Forges,48.625298866316996,2.13343159871395
91640,Essonne,Fontenay-lès-Briis,48.61939,2.15475
91640,Essonne,Janvry,48.647960100000006,2.153771
91640,Essonne,Vaugrigneuse,48.60260170000001,2.1209436000000004
91650,Essonne,Breuillet,48.56952101429339,2.1788803855434797
91650,Essonne,Breux-Jouy,48.5590524,2.1548029
91660,Essonne,Estouches,48.30966515,2.12939154609155
91660,Essonne,Méréville,48.3172902579951,2.08882735135979
91670,Essonne,Angerville,48.3130302028674,1.9977328786942898
91680,Essonne,Bruyères-le-Châtel,48.596296113176,2.1835365493642
91680,Essonne,Courson-Monteloup,48.59226029999999,2.1451135
91690,Essonne,Arrancourt,48.3423097,2.1618086
91690,Essonne,Boissy-la-Rivière,48.374679,2.1530914
91690,Essonne,Fontaine-la-Rivière,48.357834000000004,2.1540757
91690,Essonne,Guillerval,48.3651749,2.1018624
91690,Essonne,Saclas,48.35908920000001,2.1266055
91690,Essonne,Saint-Cyr-la-Rivière,48.361355290423795,2.13578906933967
91700,Essonne,Fleury-Mérogis,48.6409709,2.3914007
91700,Essonne,Sainte-Geneviève-des-Bois,48.639714519376405,2.33643819122042
91700,Essonne,Villiers-sur-Orge,48.6585041,2.3010786
91710,Essonne,Vert-le-Petit,48.5483769656047,2.3668507587546204
91720,Essonne,Boigneville,48.342078,2.3789792999999997
91720,Essonne,Buno-Bonnevaux,48.359494399999996,2.3889682
91720,Essonne,Courdimanche-sur-Essonne,48.4188533,2.3768291
91720,Essonne,Gironville-sur-Essonne,48.3729686,2.3788223
91720,Essonne,Maisse,48.37847815972711,2.3647440623660203
91720,Essonne,Prunay-sur-Essonne,48.3571722,2.3755412999999996
91720,Essonne,Valpuiseaux,48.398742799999994,2.30498
91730,Essonne,Chamarande,48.5231212748942,2.21422601269826
91730,Essonne,Mauchamps,48.530927500000004,2.1939081000000002
91730,Essonne,Torfou,48.5299467,2.2274803
91740,Essonne,Chalou-Moulineux,48.38014412229771,2.0128796708422603
91740,Essonne,Pussay,48.3495575,1.9917237
91740,Essonne,Congerville-Thionville,48.3875165,1.9887644
91750,Essonne,Champcueil,48.5145537208381,2.4538298878264304
91750,Essonne,Chevannes,48.5324314,2.4426227000000003
91750,Essonne,Nainville-les-Roches,48.5058036,2.4946412000000002
91760,Essonne,Itteville,48.514361365670794,2.3473499891397003
91770,Essonne,Saint-Vrain,48.540810424705704,2.33419873010514
91780,Essonne,Chalo-Saint-Mars,48.4277954250986,2.05029636396428
91780,Essonne,Mérobert,48.4156188,2.005692
91780,Essonne,Saint-Hilaire,48.433705700000004,2.0761852
91790,Essonne,Boissy-sous-Saint-Yon,48.5493753469894,2.21273167538948
91800,Essonne,Boussy-Saint-Antoine,48.6817320270096,2.5258463566132003
91800,Essonne,Brunoy,48.7099489,2.5223991000000003
91810,Essonne,Vert-le-Grand,48.57448948607671,2.3601859303654704
91820,Essonne,Boutigny-sur-Essonne,48.4360595912597,2.3734700792943197
91820,Essonne,Vayres-sur-Essonne,48.4383759,2.354275
91830,Essonne,Auvernaux,48.527848799999994,2.4926321
91830,Essonne,Le Coudray-Montceaux,48.550803688020004,2.4879054635569102
91840,Essonne,Soisy-sur-École,48.476995284294205,2.49323227861041
91850,Essonne,Bouray-sur-Juine,48.518188824305895,2.2974581776628398
91860,Essonne,Épinay-sous-Sénart,48.694260449089406,2.51782959536859
91870,Essonne,Boissy-le-Sec,48.483124912407796,2.08855454082309
91880,Essonne,Bouville,48.4315620923022,2.27435185579587
91890,Essonne,Videlles,48.4653797908196,2.42908261096589
91910,Essonne,Saint-Sulpice-de-Favières,48.5393440142809,2.1789634442104
91930,Essonne,Monnerville,48.3467373927873,2.0424229247725503
91940,Essonne,Gometz-le-Châtel,48.681692,2.143538
91940,Essonne,Saint-Jean-de-Beauregard,48.663340600000005,2.1694739
91940,Essonne,Les Ulis,48.6826995,2.1651667999999997
92000,Hauts-de-Seine,Nanterre,48.8902479,2.2025832000000003
92100,Hauts-de-Seine,Boulogne-Billancourt,48.8322369,2.2512524
92110,Hauts-de-Seine,Clichy,48.90307670000001,2.30612784841191
92120,Hauts-de-Seine,Montrouge,48.81865495,2.32117314613915
92130,Hauts-de-Seine,Issy-les-Moulineaux,48.8279828,2.2641542
92140,Hauts-de-Seine,Clamart,48.7964414201978,2.25797163170785
92150,Hauts-de-Seine,Suresnes,48.8747841661205,2.22859206129091
92160,Hauts-de-Seine,Antony,48.7504919977396,2.3016875127562297
92170,Hauts-de-Seine,Vanves,48.8219562041659,2.2877065485193597
92190,Hauts-de-Seine,Meudon,48.8142280056066,2.2335884479465298
92200,Hauts-de-Seine,Neuilly-sur-Seine,48.8799659249043,2.2562278908441002
92210,Hauts-de-Seine,Saint-Cloud,48.843931197005794,2.2151674626076
92220,Hauts-de-Seine,Bagneux,48.7999886132174,2.31081642222929
92230,Hauts-de-Seine,Gennevilliers,48.9296475135049,2.3020023356413
92240,Hauts-de-Seine,Malakoff,48.818080163187894,2.30153049895451
92250,Hauts-de-Seine,La Garenne-Colombes,48.90582388708201,2.24355681183747
92260,Hauts-de-Seine,Fontenay-aux-Roses,48.79130418567221,2.28575875205766
92270,Hauts-de-Seine,Bois-Colombes,48.913520014938,2.2686073656883
92290,Hauts-de-Seine,Châtenay-Malabry,48.770470404947396,2.26407937991476
92300,Hauts-de-Seine,Levallois-Perret,48.8939106324218,2.28687338833639
92310,Hauts-de-Seine,Sèvres,48.822227094533204,2.21370604536895
92320,Hauts-de-Seine,Châtillon,48.810582043614595,2.29537639286981
92330,Hauts-de-Seine,Sceaux,48.77688748789289,2.2860444952112497
92340,Hauts-de-Seine,Bourg-la-Reine,48.7808809,2.31546151887755
92350,Hauts-de-Seine,Le Plessis-Robinson,48.774203299999996,2.2379816000000003
92370,Hauts-de-Seine,Chaville,48.8069976,2.1853514
92380,Hauts-de-Seine,Garches,48.844043624705705,2.19211207450831
92390,Hauts-de-Seine,Villeneuve-la-Garenne,48.93098580694961,2.32885944219344
92400,Hauts-de-Seine,Courbevoie,48.89734895467179,2.2514326882802402
92410,Hauts-de-Seine,Ville-d'Avray,48.8247307647457,2.18671556805345
92420,Hauts-de-Seine,Vaucresson,48.840829191009504,2.1607202832954497
92430,Hauts-de-Seine,Marnes-la-Coquette,48.83044965749289,2.17291772125452
92500,Hauts-de-Seine,Rueil-Malmaison,48.88346575,2.17228557935855
92600,Hauts-de-Seine,Asnières-sur-Seine,48.9068802,2.2877509999999996
92700,Hauts-de-Seine,Colombes,48.920972484817106,2.24828296861839
92800,Hauts-de-Seine,Puteaux,48.882574282571,2.24114295983797
93000,Seine-Saint-Denis,Bobigny,48.908381395444295,2.43527180711427
93100,Seine-Saint-Denis,Montreuil,48.860120685598794,2.44150280435169
93110,Seine-Saint-Denis,Rosny-sous-Bois,48.872568486585905,2.48877772718709
93120,Seine-Saint-Denis,La Courneuve,48.9265009113655,2.3988495063262
93130,Seine-Saint-Denis,Noisy-le-Sec,48.894815,2.4421502
93140,Seine-Saint-Denis,Bondy,48.90034432443629,2.4804569136312002
93150,Seine-Saint-Denis,Le Blanc-Mesnil,48.9435689,2.4392241
93160,Seine-Saint-Denis,Noisy-le-Grand,48.842842740916794,2.55584313303557
93170,Seine-Saint-Denis,Bagnolet,48.8696484598718,2.42120093680585
93190,Seine-Saint-Denis,Livry-Gargan,48.9202308737453,2.5383286567538597
93200,Seine-Saint-Denis,Saint-Denis,48.9335829,2.3711008
93220,Seine-Saint-Denis,Gagny,48.8863166,2.5393116
93230,Seine-Saint-Denis,Romainville,48.88779000750029,2.4312990311434
93240,Seine-Saint-Denis,Stains,48.958200837320796,2.3798812552919797
93250,Seine-Saint-Denis,Villemomble,48.8873216789206,2.50916612737455
93260,Seine-Saint-Denis,Les Lilas,48.8801703508206,2.41883489402352
93270,Seine-Saint-Denis,Sevran,48.92766339999999,2.5238139634671604
93290,Seine-Saint-Denis,Tremblay-en-France,48.9641961010816,2.56150405666807
93300,Seine-Saint-Denis,Aubervilliers,48.909328035729,2.38010473854727
93310,Seine-Saint-Denis,Le Pré-Saint-Gervais,48.884543930620005,2.40625306335661
93320,Seine-Saint-Denis,Les Pavillons-sous-Bois,48.9047151767238,2.5074165162066
93330,Seine-Saint-Denis,Neuilly-sur-Marne,48.859834827822894,2.5293746566274597
93340,Seine-Saint-Denis,Le Raincy,48.89457378554629,2.51606988699237
93350,Seine-Saint-Denis,Le Bourget,48.9336389,2.4224588
93360,Seine-Saint-Denis,Neuilly-Plaisance,48.8651479963342,2.5082122702225
93370,Seine-Saint-Denis,Montfermeil,48.8987386902938,2.56446600412107
93380,Seine-Saint-Denis,Pierrefitte-sur-Seine,48.960392193991005,2.36036195263031
93390,Seine-Saint-Denis,Clichy-sous-Bois,48.9077596881318,2.5353875314244902
93400,Seine-Saint-Denis,Saint-Ouen,48.912904,2.325507
93410,Seine-Saint-Denis,Vaujours,48.9331728387712,2.57048575599489
93420,Seine-Saint-Denis,Villepinte,48.9583080715287,2.54200671212099
93430,Seine-Saint-Denis,Villetaneuse,48.9566737,2.3431131
93440,Seine-Saint-Denis,Dugny,48.950293580409,2.4190887535056897
93460,Seine-Saint-Denis,Gournay-sur-Marne,48.8597800182949,2.58052756585112
93470,Seine-Saint-Denis,Coubron,48.91567873217589,2.57519432544119
93500,Seine-Saint-Denis,Pantin,48.90562155,2.39770653321798
93600,Seine-Saint-Denis,Aulnay-sous-Bois,48.9409340847378,2.49138040846589
93700,Seine-Saint-Denis,Drancy,48.9208983825159,2.43418067969995
93800,Seine-Saint-Denis,Épinay-sur-Seine,48.954303455602705,2.3054705488116003
94000,Val-de-Marne,Créteil,48.783325041344206,2.4567630429551603
94100,Val-de-Marne,Saint-Maur-des-Fossés,48.80072635,2.4871155124092
94110,Val-de-Marne,Arcueil,48.8069108,2.3367770073898
94120,Val-de-Marne,Fontenay-sous-Bois,48.8505396747816,2.46990022916306
94130,Val-de-Marne,Nogent-sur-Marne,48.8377256520775,2.48241058326687
94140,Val-de-Marne,Alfortville,48.8047461689178,2.4196010524284
94150,Val-de-Marne,Rungis,48.750847850879005,2.3481527129620297
94160,Val-de-Marne,Saint-Mandé,48.845994,2.4206168999999997
94170,Val-de-Marne,Le Perreux-sur-Marne,48.846711629078904,2.50819305660125
94190,Val-de-Marne,Villeneuve-Saint-Georges,48.74110957765671,2.44845850012871
94200,Val-de-Marne,Ivry-sur-Seine,48.81503413903279,2.38530315279799
94220,Val-de-Marne,Charenton-le-Pont,48.8217799188814,2.4165381884581
94230,Val-de-Marne,Cachan,48.7938293535993,2.3284940529209703
94250,Val-de-Marne,Gentilly,48.812230889557505,2.34653987989414
94260,Val-de-Marne,Fresnes,48.759041170460605,2.3246865937674
94270,Val-de-Marne,Le Kremlin-Bicêtre,48.812308557319795,2.36094067591892
94290,Val-de-Marne,Villeneuve-le-Roi,48.7342437565847,2.42207254863268
94300,Val-de-Marne,Vincennes,48.84700283096971,2.4364769856226496
94310,Val-de-Marne,Orly,48.7383590738819,2.38003692756916
94320,Val-de-Marne,Thiais,48.761302715958,2.39041362374538
94340,Val-de-Marne,Joinville-le-Pont,48.821962139320796,2.47087549145953
94350,Val-de-Marne,Villiers-sur-Marne,48.82350704556829,2.54030539447845
94360,Val-de-Marne,Bry-sur-Marne,48.837200313252495,2.5268214746668
94370,Val-de-Marne,Sucy-en-Brie,48.770572308575794,2.5220890412949903
94380,Val-de-Marne,Bonneuil-sur-Marne,48.77008425,2.48536197611086
94400,Val-de-Marne,Vitry-sur-Seine,48.79425829189711,2.39258831576543
94410,Val-de-Marne,Saint-Maurice,48.818016545958606,2.43687724775685
94420,Val-de-Marne,Le Plessis-Trévise,48.808177416968405,2.57663130108437
94430,Val-de-Marne,Chennevières-sur-Marne,48.803104868616295,2.53334051015398
94440,Val-de-Marne,Marolles-en-Brie,48.7391,2.55424
94440,Val-de-Marne,Santeny,48.7348571,2.5788488
94440,Val-de-Marne,Villecresnes,48.7206898392991,2.53434458468917
94450,Val-de-Marne,Limeil-Brévannes,48.7472228354846,2.48008686597819
94460,Val-de-Marne,Valenton,48.7539019880624,2.46050455721895
94470,Val-de-Marne,Boissy-Saint-Léger,48.75119178826421,2.51221745461259
94480,Val-de-Marne,Ablon-sur-Seine,48.723928130075706,2.4200284272154398
94490,Val-de-Marne,Ormesson-sur-Marne,48.7894195746315,2.54388728397486
94500,Val-de-Marne,Champigny-sur-Marne,48.8126571552586,2.51394661346527
94510,Val-de-Marne,La Queue-en-Brie,48.786652903187,2.5764311133319504
94520,Val-de-Marne,Mandres-les-Roses,48.7004292262734,2.54677409684821
94520,Val-de-Marne,Périgny,48.694543200000005,2.5534242999999996
94550,Val-de-Marne,Chevilly-Larue,48.7697275503925,2.3597107252794998
94600,Val-de-Marne,Choisy-le-Roi,48.7646847656906,2.40992557756798
94700,Val-de-Marne,Maisons-Alfort,48.8101349,2.4430065
94800,Val-de-Marne,Villejuif,48.793896804922895,2.36195810368041
94880,Val-de-Marne,Noiseau,48.775686454273995,2.5506327666333704
95000,Val-d'Oise,Boisemont,49.0223999,2.0026375
95000,Val-d'Oise,Cergy,49.0278361,2.06542745000083
95000,Val-d'Oise,Neuville-sur-Oise,49.0135534,2.0623676
95000,Val-d'Oise,Pontoise,49.0278361,2.06542745000083
95100,Val-d'Oise,Argenteuil,48.948703409719705,2.23932078222402
95110,Val-d'Oise,Sannois,48.979311200000005,2.24424438059006
95120,Val-d'Oise,Ermont,48.9883805276881,2.25798845636622
95130,Val-d'Oise,Franconville,48.99210025,2.22500922519366
95130,Val-d'Oise,Le Plessis-Bouchard,49.0014984,2.2227591
95140,Val-d'Oise,Garges-lès-Gonesse,48.972074699632394,2.4057764635495498
95150,Val-d'Oise,Taverny,49.0260453094929,2.19715775806996
95160,Val-d'Oise,Montmorency,49.0002438,2.3213880000000002
95170,Val-d'Oise,Deuil-la-Barre,48.97055606557771,2.32306656080042
95180,Val-d'Oise,Menucourt,49.028724846047204,1.97945051343083
95190,Val-d'Oise,Fontenay-en-Parisis,49.041724,2.4484068723517503
95190,Val-d'Oise,Goussainville,49.038574429565,2.46121649532078
95200,Val-d'Oise,Sarcelles,48.9741886,2.3711197999999998
95210,Val-d'Oise,Saint-Gratien,48.9681753091815,2.28459106172441
95220,Val-d'Oise,Herblay,49.0053926,2.17424787779154
95230,Val-d'Oise,Soisy-sous-Montmorency,48.985214150333796,2.2960780431947003
95240,Val-d'Oise,Cormeilles-en-Parisis,48.9620505887543,2.1992249098560697
95250,Val-d'Oise,Beauchamp,49.018384000000005,2.1802760735294098
95260,Val-d'Oise,Beaumont-sur-Oise,49.138859390422,2.2820086099955
95260,Val-d'Oise,Mours,49.130657799999994,2.2680611
95270,Val-d'Oise,Asnières-sur-Oise,49.133908899999994,2.3541272999999996
95270,Val-d'Oise,Bellefontaine,49.0995277,2.4655052000000004
95270,Val-d'Oise,Belloy-en-France,49.0977247,2.3622716
95270,Val-d'Oise,Chaumontel,49.1302,2.43913
95270,Val-d'Oise,Lassy,49.0975186,2.4453565
95270,Val-d'Oise,Luzarches,49.115609899999995,2.40687018347154
95270,Val-d'Oise,Noisy-sur-Oise,49.138255799999996,2.3299877
95270,Val-d'Oise,Seugy,49.118680915290604,2.3916586089695
95270,Val-d'Oise,Viarmes,49.1168467,2.3685019
95280,Val-d'Oise,Jouy-le-Moutier,49.011781060763,2.03366633637998
95300,Val-d'Oise,Ennery,49.079846999999994,2.1088299669123503
95300,Val-d'Oise,Hérouville,49.0998904,2.1280641
95300,Val-d'Oise,Livilliers,49.0952136,2.0950962
95310,Val-d'Oise,Saint-Ouen-l'Aumône,49.0470682709061,2.11851086932251
95320,Val-d'Oise,Saint-Leu-la-Forêt,49.01151043784449,2.24545196323379
95330,Val-d'Oise,Domont,49.026660560885,2.3308942234749903
95340,Val-d'Oise,Bernes-sur-Oise,49.1579465,2.3059281000000005
95340,Val-d'Oise,Persan,49.142556477602994,2.26101729035016
95340,Val-d'Oise,Ronquerolles,49.1711096,2.2066479
95350,Val-d'Oise,Piscop,49.0120051,2.3422807
95350,Val-d'Oise,Saint-Brice-sous-Forêt,49.0006111790074,2.35690374402826
95360,Val-d'Oise,Montmagny,48.9758653753448,2.3579627010837902
95370,Val-d'Oise,Montigny-lès-Cormeilles,48.9958266492216,2.19586515342512
95380,Val-d'Oise,Épiais-lès-Louvres,49.0231255,2.54436279885753
95380,Val-d'Oise,Louvres,49.05579565,2.5165145326795098
95380,Val-d'Oise,Puiseux-en-France,49.0573153,2.5010539
95380,Val-d'Oise,Villeron,49.05765,2.5406392999999996
95390,Val-d'Oise,Saint-Prix,49.0088800047478,2.2706490107598
95400,Val-d'Oise,Arnouville,48.989183700000005,2.41902039974916
95400,Val-d'Oise,Villiers-le-Bel,48.99948010000001,2.40240744948996
95410,Val-d'Oise,Groslay,48.984498156942394,2.341832502692
95420,Val-d'Oise,Arthies,49.0940316,1.7900339
95420,Val-d'Oise,Banthelu,49.12663010000001,1.8148772000000002
95420,Val-d'Oise,Charmont,49.13345,1.7826794513201898
95420,Val-d'Oise,Genainville,49.1252057,1.7518981
95420,Val-d'Oise,Hodent,49.1454089,1.7677343999999997
95420,Val-d'Oise,Maudétour-en-Vexin,49.1001721,1.7755816000000002
95420,Val-d'Oise,Nucourt,49.1555091935922,1.84430461764386
95420,Val-d'Oise,Omerville,49.140268299999995,1.7180673
95420,Val-d'Oise,Wy-dit-Joli-Village,49.1027717,1.8350572
95430,Val-d'Oise,Auvers-sur-Oise,49.08473245,2.16683923596401
95430,Val-d'Oise,Butry-sur-Oise,49.0856723,2.1979556000000002
95440,Val-d'Oise,Écouen,49.0212565266107,2.38137133749261
95450,Val-d'Oise,Ableiges,49.0901646,1.9812325000000002
95450,Val-d'Oise,Avernes,49.09219605,1.8786148614351201
95450,Val-d'Oise,Commeny,49.1271097,1.8904928
95450,Val-d'Oise,Condécourt,49.041871,1.9400988000000001
95450,Val-d'Oise,Frémainville,49.0650534,1.8677977
95450,Val-d'Oise,Gadancourt,49.100771,1.8621330683652197
95450,Val-d'Oise,Gouzangrez,49.1139578,1.9096305
95450,Val-d'Oise,Guiry-en-Vexin,49.109969799999995,1.8504386999999998
95450,Val-d'Oise,Longuesse,49.06148305,1.9307032810098201
95450,Val-d'Oise,Le Perchay,49.110122100000005,1.9331691000000002
95450,Val-d'Oise,Sagy,49.0504046,1.9525082999999999
95450,Val-d'Oise,Seraincourt,49.035550799999996,1.8657252
95450,Val-d'Oise,Théméricourt,49.07735355,1.9037630626797601
95450,Val-d'Oise,Us,49.1001561,1.9667696
95450,Val-d'Oise,Vigny,49.080627567440395,1.91663089929523
95460,Val-d'Oise,Ézanville,49.0303428596503,2.36177804267952
95470,Val-d'Oise,Fosses,49.098984200409696,2.5224590297642298
95470,Val-d'Oise,Saint-Witz,49.08189765,2.55372878798639
95470,Val-d'Oise,Survilliers,49.1025201,2.5434395
95470,Val-d'Oise,Vémars,49.0672657,2.5659272
95480,Val-d'Oise,Pierrelaye,49.0199726,2.15472815149676
95490,Val-d'Oise,Vauréal,49.033466263033894,2.02098751909993
95500,Val-d'Oise,Bonneuil-en-France,48.974284999999995,2.4315754000000003
95500,Val-d'Oise,Gonesse,48.9856537,2.46496544502363
95500,Val-d'Oise,Le Thillay,49.0018772,2.4721847
95500,Val-d'Oise,Vaudherland,49.000859399999996,2.4874002999999996
95510,Val-d'Oise,Villers-en-Arthies,49.0877702,1.7058567154856201
95520,Val-d'Oise,Osny,49.0607032798042,2.07046667369927
95530,Val-d'Oise,La Frette-sur-Seine,48.976793024370096,2.18010872928182
95540,Val-d'Oise,Méry-sur-Oise,49.0618999504161,2.1558324749789
95550,Val-d'Oise,Bessancourt,49.03279647321529,2.21948272179198
95560,Val-d'Oise,Baillet-en-France,49.06503038523171,2.3046377144085497
95560,Val-d'Oise,Chauvry,49.0544765,2.2669571
95560,Val-d'Oise,Maffliers,49.0784276,2.3124785
95560,Val-d'Oise,Montsoult,49.06832275,2.30246239885626
95570,Val-d'Oise,Attainville,49.0554021,2.3521504846645804
95570,Val-d'Oise,Bouffémont,49.043441426132496,2.3138745068077298
95570,Val-d'Oise,Moisselles,49.0477857,2.3367986000000003
95580,Val-d'Oise,Andilly,49.00983225,2.30381138275911
95580,Val-d'Oise,Margency,49.001999999999995,2.2884700000000002
95590,Val-d'Oise,Nerville-la-Forêt,49.0904269,2.2799663
95590,Val-d'Oise,Nointel,49.129763,2.2900352
95590,Val-d'Oise,Presles,49.10609395,2.28532722771739
95600,Val-d'Oise,Eaubonne,48.9811359,2.2711262999999997
95610,Val-d'Oise,Éragny,49.01995437251221,2.10486296038294
95620,Val-d'Oise,Parmain,49.11592070457829,2.20779669452147
95630,Val-d'Oise,Mériel,49.0773842440308,2.20683800089684
95640,Val-d'Oise,Bréançon,49.1549024,2.01117535865024
95640,Val-d'Oise,Brignancourt,49.137474100000006,1.9437008999999998
95640,Val-d'Oise,Haravilliers,49.1741657,2.0537662
95640,Val-d'Oise,Le Heaulme,49.165907399999995,1.9986401000000003
95640,Val-d'Oise,Marines,49.148705566877204,1.9792142752624597
95640,Val-d'Oise,Moussy,49.1379292,1.9088785
95640,Val-d'Oise,Santeuil,49.1255631,1.9500827
95650,Val-d'Oise,Boissy-l'Aillerie,49.08220295,2.01946648290331
95650,Val-d'Oise,Courcelles-sur-Viosne,49.07763,2.00372
95650,Val-d'Oise,Génicourt,49.0874343,2.0658319
95650,Val-d'Oise,Montgeroult,49.081027299999995,2.0067345000000003
95660,Val-d'Oise,Champagne-sur-Oise,49.1372921503789,2.2359288986493597
95670,Val-d'Oise,Marly-la-Ville,49.0843495167196,2.50616301672969
95680,Val-d'Oise,Montlignon,49.0119097177098,2.28484363964238
95690,Val-d'Oise,Frouville,49.13995535,2.16007017725617
95690,Val-d'Oise,Hédouville,49.1548174,2.1730487000000003
95690,Val-d'Oise,Labbeville,49.1372976982375,2.1447915857297097
95700,Val-d'Oise,Roissy-en-France,48.997245629286795,2.5136803727287202
95710,Val-d'Oise,Ambleville,49.14786229999999,1.6965871
95710,Val-d'Oise,Chaussy,49.13214305,1.67706640319267
95720,Val-d'Oise,Bouqueval,49.023737100000005,2.4258022
95720,Val-d'Oise,Le Mesnil-Aubry,49.0501391,2.39514695040079
95720,Val-d'Oise,Le Plessis-Gassot,49.0446898319483,2.40719637800563
95740,Val-d'Oise,Frépillon,49.051407997362205,2.202626764946
95750,Val-d'Oise,Chars,49.15604875,1.91798608669698
95760,Val-d'Oise,Valmondois,49.097076949624395,2.18647166820093
95770,Val-d'Oise,Buhy,49.19759175,1.7002282916728702
95770,Val-d'Oise,Montreuil-sur-Epte,49.1768421,1.6765982
95780,Val-d'Oise,La Roche-Guyon,49.08169453597879,1.63684549504428
95800,Val-d'Oise,Courdimanche,49.04240265,2.01206564428624
95810,Val-d'Oise,Arronville,49.180049,2.1118398999999997
95810,Val-d'Oise,Berville,49.1915256,2.0719964
95810,Val-d'Oise,Grisy-les-Plâtres,49.130876,2.0499726000000003
95810,Val-d'Oise,Menouville,49.155561299999995,2.09264846336398
95810,Val-d'Oise,Theuville,49.1534523,2.0722188999999998
95810,Val-d'Oise,Vallangoujard,49.140032700000006,2.1109926
95820,Val-d'Oise,Bruyères-sur-Oise,49.15844083548921,2.3279835353951803
95830,Val-d'Oise,Cormeilles-en-Vexin,49.1156729,2.0117866751412703
95830,Val-d'Oise,Frémécourt,49.119121,2.0017953
95840,Val-d'Oise,Béthemont-la-Forêt,49.056636700000006,2.2508906000000004
95840,Val-d'Oise,Villiers-Adam,49.06616915,2.23890174101753
95850,Val-d'Oise,Mareil-en-France,49.07354070820661,2.4315703774648196
95870,Val-d'Oise,Bezons,48.924346,2.2193973999999996
95880,Val-d'Oise,Enghien-les-Bains,48.971196251051104,2.30784487324348
